,capacity,eightd_has_key_dispenser,electric_bike_surcharge_waiver,external_id,has_kiosk,lat,lon,name,region_id,rental_methods,rental_url,short_name,station_id,city,region
0,35,False,False,1b13a386-c5f4-42cc-bc3b-ded95982e090,True,37.78637526861584,-122.40490436553954,Powell St BART Station (Market St at 4th St),3,"['CREDITCARD', 'KEY']",http://app.fordgobike.com/Z6gL/SiFlGfIOTF?station_id=3,SF-G27,3,San Francisco,San Francisco
1,35,False,False,a00d04e6-0159-466a-b3ab-23f9550f418c,True,37.78588062694133,-122.4089150084319,Cyril Magnin St at Ellis St,3,"['CREDITCARD', 'KEY']",http://app.fordgobike.com/Z6gL/SiFlGfIOTF?station_id=4,SF-G26,4,San Francisco,San Francisco
2,35,False,False,a1e0b4b2-2c5c-4201-a78c-9e8a2152ab4e,True,37.783899357084934,-122.40844488143921,Powell St BART Station (Market St at 5th St),3,"['CREDITCARD', 'KEY']",http://app.fordgobike.com/Z6gL/SiFlGfIOTF?station_id=5,SF-H26,5,San Francisco,San Francisco
3,23,False,False,23a2bad4-3ea1-4545-87eb-acbee3efccfc,True,37.80477,-122.403234,The Embarcadero at Sansome St,3,"['CREDITCARD', 'KEY']",http://app.fordgobike.com/Z6gL/SiFlGfIOTF?station_id=6,SF-A27,6,San Francisco,San Francisco
4,35,False,False,9e3efff1-3d42-46fd-8206-4021277ba6c2,True,37.8045623549303,-122.27173805236816,Frank H Ogawa Plaza,12,"['CREDITCARD', 'KEY']",http://app.fordgobike.com/Z6gL/SiFlGfIOTF?station_id=7,OK-L5,7,Oakland,East Bay
5,23,False,False,7c7ac914-40e5-426d-b9c4-f12b1a556be8,True,37.799953,-122.398525,The Embarcadero at Vallejo St,3,"['CREDITCARD', 'KEY']",http://app.fordgobike.com/Z6gL/SiFlGfIOTF?station_id=8,SF-C28-1,8,San Francisco,San Francisco
6,19,False,False,75f6691a-df0a-4d7a-8b35-e5ffe33add4f,True,37.79857210846256,-122.40086898207666,Broadway at Battery St,3,"['CREDITCARD', 'KEY']",http://app.fordgobike.com/Z6gL/SiFlGfIOTF?station_id=9,SF-C28-2,9,San Francisco,San Francisco
7,31,False,False,e5b0aca4-2ce6-49f8-82e8-8eed6e004147,True,37.79539293725452,-122.4047702550888,Washington St at Kearny St,3,"['CREDITCARD', 'KEY']",http://app.fordgobike.com/Z6gL/SiFlGfIOTF?station_id=10,SF-D27,10,San Francisco,San Francisco
8,35,False,False,faad71bc-21e3-4ce1-8b84-63f782a91d1b,True,37.79728,-122.398436,Davis St at Jackson St,3,"['CREDITCARD', 'KEY']",http://app.fordgobike.com/Z6gL/SiFlGfIOTF?station_id=11,SF-D28,11,San Francisco,San Francisco
9,23,False,False,4fc98cbd-9c9b-401b-95a6-927e30bdbd46,True,37.7963894,-122.3945855,Pier 1/2 at The Embarcadero,3,"['CREDITCARD', 'KEY']",http://app.fordgobike.com/Z6gL/SiFlGfIOTF?station_id=12,SF-D29,12,San Francisco,San Francisco
10,23,False,False,e82e7160-d8fb-452b-8f27-c0f75926d080,True,37.794231,-122.402923,Commercial St at Montgomery St,3,"['CREDITCARD', 'KEY']",http://app.fordgobike.com/Z6gL/SiFlGfIOTF?station_id=13,SF-E27,13,San Francisco,San Francisco
11,31,False,False,ed1bf0f9-aa06-4f57-8cd6-5775ff3c29f0,True,37.795001,-122.39997,Clay St at Battery St,3,"['CREDITCARD', 'KEY']",http://app.fordgobike.com/Z6gL/SiFlGfIOTF?station_id=14,SF-E28,14,San Francisco,San Francisco
12,38,False,False,b2e9118f-aafb-49fb-b237-4ba08e21f51f,True,37.795392,-122.394203,San Francisco Ferry Building (Harry Bridges Plaza),3,"['CREDITCARD', 'KEY']",http://app.fordgobike.com/Z6gL/SiFlGfIOTF?station_id=15,SF-E29-1,15,San Francisco,San Francisco
13,23,False,False,84b1ea89-19b6-4f78-92e2-2a161f75e67e,True,37.79413,-122.39443,Steuart St at Market St,3,"['CREDITCARD', 'KEY']",http://app.fordgobike.com/Z6gL/SiFlGfIOTF?station_id=16,SF-E29-2,16,San Francisco,San Francisco
14,27,False,False,16fea24d-ec2c-4e37-8f63-fc9f793de2cf,True,37.792251,-122.397086,Embarcadero BART Station (Beale St at Market St),3,"['CREDITCARD', 'KEY']",http://app.fordgobike.com/Z6gL/SiFlGfIOTF?station_id=17,SF-E29-3,17,San Francisco,San Francisco
15,11,False,False,790da352-5aaa-4bb9-8453-e8ec2f78c038,True,37.85022187449679,-122.26017236709595,Telegraph Ave at Alcatraz Ave,12,"['CREDITCARD', 'KEY']",http://app.fordgobike.com/Z6gL/SiFlGfIOTF?station_id=18,OK-A2,18,Oakland,East Bay
16,35,False,False,3213dcdb-2ba7-46ad-b358-258a34bde9e0,True,37.788975,-122.403452,Post St at Kearny St,3,"['CREDITCARD', 'KEY']",http://app.fordgobike.com/Z6gL/SiFlGfIOTF?station_id=19,SF-F27,19,San Francisco,San Francisco
17,23,False,False,cf56994c-cdd6-4586-9f56-eea2f51e81ae,True,37.7913,-122.399051,Mechanics Monument Plaza (Market St at Bush St),3,"['CREDITCARD', 'KEY']",http://app.fordgobike.com/Z6gL/SiFlGfIOTF?station_id=20,SF-F28-1,20,San Francisco,San Francisco
18,39,False,False,2b935f1b-2659-4d82-a348-6a3bb083914d,True,37.7896254,-122.400811,Montgomery St BART Station (Market St at 2nd St),3,"['CREDITCARD', 'KEY']",http://app.fordgobike.com/Z6gL/SiFlGfIOTF?station_id=21,SF-F28-2,21,San Francisco,San Francisco
19,27,False,False,083eaf2a-4d3f-4d83-986a-98f67f7f22b4,True,37.789756,-122.394643,Howard St at Beale St,3,"['CREDITCARD', 'KEY']",http://app.fordgobike.com/Z6gL/SiFlGfIOTF?station_id=22,SF-F29,22,San Francisco,San Francisco
20,23,False,False,6327ad76-fdd0-4ea8-a09a-f1bccca719b3,True,37.791464,-122.391034,The Embarcadero at Steuart St,3,"['CREDITCARD', 'KEY']",http://app.fordgobike.com/Z6gL/SiFlGfIOTF?station_id=23,SF-F30-1,23,San Francisco,San Francisco
21,19,False,False,380aa51b-4c0a-4388-ad78-37edf7338a3e,True,37.7896767,-122.3904285,Spear St at Folsom St,3,"['CREDITCARD', 'KEY']",http://app.fordgobike.com/Z6gL/SiFlGfIOTF?station_id=24,SF-F30-2,24,San Francisco,San Francisco
22,19,False,False,d79ae08e-a8d2-4aad-9f98-9b20afb8f6e0,True,37.78692825678771,-122.39811301231384,Howard St at 2nd St,3,"['CREDITCARD', 'KEY']",http://app.fordgobike.com/Z6gL/SiFlGfIOTF?station_id=25,SF-G28-1,25,San Francisco,San Francisco
23,19,False,False,a40fc1eb-e8e9-4d41-8f77-71365f0d9064,True,37.78729,-122.39438,1st St at Folsom St,3,"['CREDITCARD', 'KEY']",http://app.fordgobike.com/Z6gL/SiFlGfIOTF?station_id=26,SF-G29-2,26,San Francisco,San Francisco
24,23,False,False,4a0d887c-7e9d-4f15-a28b-aeeff05f81b6,True,37.7880593,-122.3918648,Beale St at Harrison St,3,"['CREDITCARD', 'KEY']",http://app.fordgobike.com/Z6gL/SiFlGfIOTF?station_id=27,SF-G30-1,27,San Francisco,San Francisco
25,19,False,False,9fae2998-e458-47f8-9c7c-978e01f05330,True,37.78716801474664,-122.38809792330358,The Embarcadero at Bryant St,3,"['CREDITCARD', 'KEY']",http://app.fordgobike.com/Z6gL/SiFlGfIOTF?station_id=28,SF-G30-2,28,San Francisco,San Francisco
26,27,False,False,3144f47a-86f7-40f6-9ff0-5c8120babf6a,True,37.782404601934104,-122.43944585323335,O'Farrell St at Divisadero St,3,"['CREDITCARD', 'KEY']",http://app.fordgobike.com/Z6gL/SiFlGfIOTF?station_id=29,SF-H18,29,San Francisco,San Francisco
27,19,False,False,ea11aa7f-c070-46a4-a074-70604340efa2,True,37.776598,-122.395282,San Francisco Caltrain (Townsend St at 4th St),3,"['CREDITCARD', 'KEY']",http://app.fordgobike.com/Z6gL/SiFlGfIOTF?station_id=30,SF-J29,30,San Francisco,San Francisco
28,27,False,False,08302771-1d45-4ec8-be85-7359fc89edd4,True,37.78381270927812,-122.43455886840819,Raymond Kimbell Playground,3,"['CREDITCARD', 'KEY']",http://app.fordgobike.com/Z6gL/SiFlGfIOTF?station_id=31,SF-G19,31,San Francisco,San Francisco
29,23,False,False,fcd1d64c-949b-459f-a335-1e0c3ed231d4,True,37.7816495,-122.4154077,Golden Gate Ave at Hyde St,3,"['CREDITCARD', 'KEY']",http://app.fordgobike.com/Z6gL/SiFlGfIOTF?station_id=33,SF-H24,33,San Francisco,San Francisco
30,23,False,False,b48ebe9a-8d7b-4ac1-b0da-db5978404330,True,37.7839879,-122.412408,Father Alfred E Boeddeker Park,3,"['CREDITCARD', 'KEY']",http://app.fordgobike.com/Z6gL/SiFlGfIOTF?station_id=34,SF-H25,34,San Francisco,San Francisco
31,23,False,False,28988488-fb74-4bbc-9e69-613698b2dd8c,True,37.32911866814779,-121.90457582473755,Cahill Park,5,"['CREDITCARD', 'KEY']",http://app.fordgobike.com/Z6gL/SiFlGfIOTF?station_id=35,SJ-M6,35,San Jose,South Bay
32,31,False,False,a81b1594-ce38-4374-b256-3f183c8e12bc,True,37.78383,-122.39887,Folsom St at 3rd St,3,"['CREDITCARD', 'KEY']",http://app.fordgobike.com/Z6gL/SiFlGfIOTF?station_id=36,SF-H28,36,San Francisco,San Francisco
33,19,False,False,dcb5ad16-caa9-4d40-b279-6d36152069a2,True,37.785376593819436,-122.39690601825714,Folsom St at 2nd St,3,"['CREDITCARD', 'KEY']",http://app.fordgobike.com/Z6gL/SiFlGfIOTF?station_id=37,SF-H29,37,San Francisco,San Francisco
34,26,False,False,8517bd49-73e1-4b27-8686-d9f38a1f1ec3,True,37.78292608704408,-122.38792061805725,The Embarcadero at Pier 38,3,"['CREDITCARD', 'KEY']",http://app.fordgobike.com/Z6gL/SiFlGfIOTF?station_id=38,SF-H30,38,San Francisco,San Francisco
35,27,False,False,86fae8b7-9d4f-499a-9437-422a07103c57,True,37.7789994,-122.4368608,Scott St at Golden Gate Ave,3,"['CREDITCARD', 'KEY']",http://app.fordgobike.com/Z6gL/SiFlGfIOTF?station_id=39,SF-I19,39,San Francisco,San Francisco
36,31,False,False,8b2524c3-cc5f-4a3d-97f6-224a540d3ecc,True,37.78127,-122.41874,Golden Gate Ave at Polk St,3,"['CREDITCARD', 'KEY']",http://app.fordgobike.com/Z6gL/SiFlGfIOTF?station_id=41,SF-I23-1,41,San Francisco,San Francisco
37,19,False,False,64ce6633-9ea3-4dc1-b33f-c9d14c523a6a,True,37.77865,-122.41823,San Francisco City Hall (Polk St at Grove St),3,"['CREDITCARD', 'KEY']",http://app.fordgobike.com/Z6gL/SiFlGfIOTF?station_id=42,SF-I23-2,42,San Francisco,San Francisco
38,31,False,False,54c91186-8493-44d1-ac4f-435350fee797,True,37.7787677,-122.4159292,San Francisco Public Library (Grove St at Hyde St),3,"['CREDITCARD', 'KEY']",http://app.fordgobike.com/Z6gL/SiFlGfIOTF?station_id=43,SF-I24,43,San Francisco,San Francisco
39,31,False,False,6ab85eb1-e112-4c57-8a44-110120d68a1d,True,37.7810737,-122.4117382,Civic Center/UN Plaza BART Station (Market St at McAllister St),3,"['CREDITCARD', 'KEY']",http://app.fordgobike.com/Z6gL/SiFlGfIOTF?station_id=44,SF-I25,44,San Francisco,San Francisco
40,15,False,False,6064907e-3871-4b2c-829b-d01406cee6fb,True,37.79013985185364,-122.24237322807312,San Antonio Park,12,"['CREDITCARD', 'KEY']",http://app.fordgobike.com/Z6gL/SiFlGfIOTF?station_id=46,OK-L12,46,Oakland,East Bay
41,31,False,False,3c09035e-28d3-4031-9148-51c08343856b,True,37.78095459960753,-122.39974915981291,4th St at Harrison St,3,"['CREDITCARD', 'KEY']",http://app.fordgobike.com/Z6gL/SiFlGfIOTF?station_id=47,SF-I28,47,San Francisco,San Francisco
42,30,False,False,a6bfff23-97d9-4a9d-b999-dd85168d8812,True,37.7807601,-122.3949894,S Park St at 3rd St,3,"['CREDITCARD', 'KEY']",http://app.fordgobike.com/Z6gL/SiFlGfIOTF?station_id=49,SF-I29-2,49,San Francisco,San Francisco
43,39,False,False,ba25987f-399d-49ce-9354-52785e48ea13,True,37.780526,-122.390288,2nd St at Townsend St,3,"['CREDITCARD', 'KEY']",http://app.fordgobike.com/Z6gL/SiFlGfIOTF?station_id=50,SF-I30,50,San Francisco,San Francisco
44,27,False,False,f2c2ba49-25e1-4493-8565-5df5af66e153,True,37.77610091264586,-122.4530929327011,Parker Ave at McAllister St,3,"['CREDITCARD', 'KEY']",http://app.fordgobike.com/Z6gL/SiFlGfIOTF?station_id=51,SF-J15,51,San Francisco,San Francisco
45,27,False,False,73fccaab-205c-4b1e-a547-5fb0f2a58056,True,37.7774157,-122.4418376,McAllister St at Baker St,3,"['CREDITCARD', 'KEY']",http://app.fordgobike.com/Z6gL/SiFlGfIOTF?station_id=52,SF-J17,52,San Francisco,San Francisco
46,27,False,False,d533df76-e03c-4ef3-b928-968aaed45823,True,37.775946,-122.4377775,Grove St at Divisadero,3,"['CREDITCARD', 'KEY']",http://app.fordgobike.com/Z6gL/SiFlGfIOTF?station_id=53,SF-J18,53,San Francisco,San Francisco
47,23,False,False,2b140c2a-c038-4983-9290-d801db8a13f5,True,37.77754677017323,-122.43327409029006,Alamo Square (Steiner St at Fulton St),3,"['CREDITCARD', 'KEY']",http://app.fordgobike.com/Z6gL/SiFlGfIOTF?station_id=54,SF-J19,54,San Francisco,San Francisco
48,27,False,False,fde4cecd-7497-4bdb-a452-0e1a755e7759,True,37.7770527,-122.4295585,Webster St at Grove St,3,"['CREDITCARD', 'KEY']",http://app.fordgobike.com/Z6gL/SiFlGfIOTF?station_id=55,SF-J20,55,San Francisco,San Francisco
49,27,False,False,891d3a5f-05ab-45f2-8427-b74a1ec12d5b,True,37.77341396997343,-122.42731690406801,Koshland Park,3,"['CREDITCARD', 'KEY']",http://app.fordgobike.com/Z6gL/SiFlGfIOTF?station_id=56,SF-K21,56,San Francisco,San Francisco
50,31,False,False,a9c46d92-b21e-489a-b922-3deb4ec1ab35,True,37.776619,-122.417385,Market St at 10th St,3,"['CREDITCARD', 'KEY']",http://app.fordgobike.com/Z6gL/SiFlGfIOTF?station_id=58,SF-J23-1,58,San Francisco,San Francisco
51,27,False,False,4990eb75-f06e-4737-b5e8-03f8f45ffe66,True,37.774814,-122.418954,S Van Ness Ave at Market St,3,"['CREDITCARD', 'KEY']",http://app.fordgobike.com/Z6gL/SiFlGfIOTF?station_id=59,SF-J23-2,59,San Francisco,San Francisco
52,31,False,False,1822622c-b9e0-43fe-8bf9-9f26024aa426,True,37.77452040113685,-122.4094493687153,8th St at Ringold St,3,"['CREDITCARD', 'KEY']",http://app.fordgobike.com/Z6gL/SiFlGfIOTF?station_id=60,SF-J24,60,San Francisco,San Francisco
53,27,False,False,6156f831-ca96-459d-aafe-685420751e4d,True,37.7765126,-122.4113061,Howard St at 8th St,3,"['CREDITCARD', 'KEY']",http://app.fordgobike.com/Z6gL/SiFlGfIOTF?station_id=61,SF-J25,61,San Francisco,San Francisco
54,15,False,False,03eb8b17-d20f-400c-a98a-dcbc947228af,True,37.77779057034257,-122.40643188357353,Victoria Manalo Draves Park,3,"['CREDITCARD', 'KEY']",http://app.fordgobike.com/Z6gL/SiFlGfIOTF?station_id=62,SF-J26,62,San Francisco,San Francisco
55,19,False,False,7d463937-ff3e-4fb2-802a-f5b7cca1159e,True,37.775910222333366,-122.40257500673577,Bryant St at 6th St,3,"['CREDITCARD', 'KEY']",http://app.fordgobike.com/Z6gL/SiFlGfIOTF?station_id=63,SF-J27,63,San Francisco,San Francisco
56,27,False,False,5d14b4a5-720a-4849-8f65-78165d8bf63c,True,37.7767539,-122.3990176,5th St at Brannan St,3,"['CREDITCARD', 'KEY']",http://app.fordgobike.com/Z6gL/SiFlGfIOTF?station_id=64,SF-J28,64,San Francisco,San Francisco
57,39,False,False,f7cd5ed5-b319-4723-93d2-188e3c3333e5,True,37.77874161153677,-122.39274082710836,3rd St at Townsend St,3,"['CREDITCARD', 'KEY']",http://app.fordgobike.com/Z6gL/SiFlGfIOTF?station_id=66,SF-J29-1,66,San Francisco,San Francisco
58,31,False,False,5292350c-9e2a-4d8d-bed5-b2738edc1551,True,37.77331087889723,-122.44429260492325,Central Ave at Fell St,3,"['CREDITCARD', 'KEY']",http://app.fordgobike.com/Z6gL/SiFlGfIOTF?station_id=70,SF-K17,70,San Francisco,San Francisco
59,27,False,False,b1a957d2-5e0e-4a99-bca3-7f3db21d30eb,True,37.7730627,-122.4390777,Broderick St at Oak St,3,"['CREDITCARD', 'KEY']",http://app.fordgobike.com/Z6gL/SiFlGfIOTF?station_id=71,SF-K18,71,San Francisco,San Francisco
60,27,False,False,5215d3e4-b85a-4499-a460-1b038f7a2bf1,True,37.772406,-122.4356498,Page St at Scott St,3,"['CREDITCARD', 'KEY']",http://app.fordgobike.com/Z6gL/SiFlGfIOTF?station_id=72,SF-K19,72,San Francisco,San Francisco
61,27,False,False,1de96988-6dfc-4f97-8570-6d8664b6e88a,True,37.7717933,-122.4337079,Pierce St at Haight St,3,"['CREDITCARD', 'KEY']",http://app.fordgobike.com/Z6gL/SiFlGfIOTF?station_id=73,SF-K20,73,San Francisco,San Francisco
62,27,False,False,83b33e8d-bf8c-4a2a-8ee3-942834af27b4,True,37.776434819204745,-122.42624402046204,Laguna St at Hayes St,3,"['CREDITCARD', 'KEY']",http://app.fordgobike.com/Z6gL/SiFlGfIOTF?station_id=74,SF-J21,74,San Francisco,San Francisco
63,35,False,False,bf116a73-3718-46c1-ac14-c295963150ae,True,37.7737932060887,-122.42123901844025,Market St at Franklin St,3,"['CREDITCARD', 'KEY']",http://app.fordgobike.com/Z6gL/SiFlGfIOTF?station_id=75,SF-K22-1,75,San Francisco,San Francisco
64,19,False,False,d8b96e4a-7123-41db-a02c-e4ce48302578,True,37.77166246221617,-122.42242321372034,McCoppin St at Valencia St,3,"['CREDITCARD', 'KEY']",http://app.fordgobike.com/Z6gL/SiFlGfIOTF?station_id=76,SF-K22-2,76,San Francisco,San Francisco
65,19,False,False,49754dc9-1925-4020-a599-704c9f064b03,True,37.7735069,-122.4160402,11th St at Natoma St,3,"['CREDITCARD', 'KEY']",http://app.fordgobike.com/Z6gL/SiFlGfIOTF?station_id=77,SF-K24,77,San Francisco,San Francisco
66,3,False,False,16fbff76-56d1-4e2b-b735-ec21b8cd3181,True,37.7737172,-122.4116467,Folsom St at 9th St,3,"['CREDITCARD', 'KEY']",http://app.fordgobike.com/Z6gL/SiFlGfIOTF?station_id=78,SF-K25,78,San Francisco,San Francisco
67,23,False,False,5f048eb1-0b31-49ac-9d17-9b9880dc0ae9,True,37.7734919,-122.4036725,7th St at Brannan St,3,"['CREDITCARD', 'KEY']",http://app.fordgobike.com/Z6gL/SiFlGfIOTF?station_id=79,SF-K27,79,San Francisco,San Francisco
68,31,False,False,38a24ab3-8b5e-4d6d-804b-d4e89d19601e,True,37.77523486860597,-122.39743709564209,Townsend St at 5th St,3,"['CREDITCARD', 'KEY']",http://app.fordgobike.com/Z6gL/SiFlGfIOTF?station_id=80,SF-K28,80,San Francisco,San Francisco
69,35,False,False,5f90cd60-c199-4919-a20c-a2e417627b9d,True,37.77588,-122.39317,Berry St at 4th St,3,"['CREDITCARD', 'KEY']",http://app.fordgobike.com/Z6gL/SiFlGfIOTF?station_id=81,SF-K29-1,81,San Francisco,San Francisco
70,19,False,False,d006bbb9-ba51-4958-9c4f-cdd78527bfa1,True,37.7692005,-122.4338119,Duboce Park,3,"['CREDITCARD', 'KEY']",http://app.fordgobike.com/Z6gL/SiFlGfIOTF?station_id=84,SF-L19,84,San Francisco,San Francisco
71,27,False,False,38a02670-3056-43fb-8271-20fbf6baa538,True,37.7700831,-122.4291557,Church St at Duboce Ave,3,"['CREDITCARD', 'KEY']",http://app.fordgobike.com/Z6gL/SiFlGfIOTF?station_id=85,SF-L20,85,San Francisco,San Francisco
72,19,False,False,930fe54f-5572-4900-8910-6041386560bf,True,37.7693053,-122.4268256,Market St at Dolores St,3,"['CREDITCARD', 'KEY']",http://app.fordgobike.com/Z6gL/SiFlGfIOTF?station_id=86,SF-L21,86,San Francisco,San Francisco
73,27,False,False,04678a3e-1ec0-4493-a3cc-b92e74ab40ec,True,37.769757,-122.415674,Folsom St at 13th St,3,"['CREDITCARD', 'KEY']",http://app.fordgobike.com/Z6gL/SiFlGfIOTF?station_id=87,SF-L24,87,San Francisco,San Francisco
74,27,False,False,a0406a84-2708-4727-84bf-9ca96894ef45,True,37.7700298,-122.4117258,11th St at Bryant St,3,"['CREDITCARD', 'KEY']",http://app.fordgobike.com/Z6gL/SiFlGfIOTF?station_id=88,SF-L25,88,San Francisco,San Francisco
75,27,False,False,2f20969c-74f7-4b6a-8e23-d4d1a31b75f5,True,37.76921786152374,-122.40764558315276,Division St at Potrero Ave,3,"['CREDITCARD', 'KEY']",http://app.fordgobike.com/Z6gL/SiFlGfIOTF?station_id=89,SF-L26,89,San Francisco,San Francisco
76,27,False,False,e4e5d6b1-a335-41a9-8efe-4c4d9294d6e2,True,37.771058,-122.402717,Townsend St at 7th St,3,"['CREDITCARD', 'KEY']",http://app.fordgobike.com/Z6gL/SiFlGfIOTF?station_id=90,SF-L27,90,San Francisco,San Francisco
77,23,False,False,afa2db8d-61bb-461a-8019-d5cd2aa1ec25,True,37.771762110313176,-122.39843755960464,Berry St at King St,3,"['CREDITCARD', 'KEY']",http://app.fordgobike.com/Z6gL/SiFlGfIOTF?station_id=91,SF-L28,91,San Francisco,San Francisco
78,25,False,False,42952b44-cb91-43dd-bdbd-34e4f2a39046,True,37.772300631747626,-122.39302754402159,Mission Bay Kids Park,3,"['CREDITCARD', 'KEY']",http://app.fordgobike.com/Z6gL/SiFlGfIOTF?station_id=92,SF-L29,92,San Francisco,San Francisco
79,27,False,False,28844b82-850f-4e02-95c6-59d6076e8516,True,37.7704074,-122.3911984,4th St at Mission Bay Blvd S,3,"['CREDITCARD', 'KEY']",http://app.fordgobike.com/Z6gL/SiFlGfIOTF?station_id=93,SF-L30-1,93,San Francisco,San Francisco
80,27,False,False,0c9cb910-8442-4df6-a997-704d817583ab,True,37.7662185,-122.4310597,Sanchez St at 15th St,3,"['CREDITCARD', 'KEY']",http://app.fordgobike.com/Z6gL/SiFlGfIOTF?station_id=95,SF-M20,95,San Francisco,San Francisco
81,19,False,False,fa33d61b-8ba5-4c23-9603-8d9ebf167d5d,True,37.7662102,-122.4266136,Dolores St at 15th St,3,"['CREDITCARD', 'KEY']",http://app.fordgobike.com/Z6gL/SiFlGfIOTF?station_id=96,SF-M21,96,San Francisco,San Francisco
82,19,False,False,b65fc6af-b92c-41c5-8c63-e26cdfa3cda1,True,37.7682646,-122.4201102,14th St at Mission St,3,"['CREDITCARD', 'KEY']",http://app.fordgobike.com/Z6gL/SiFlGfIOTF?station_id=97,SF-M22-1,97,San Francisco,San Francisco
83,23,False,False,a5c8beca-df86-4cac-8229-ac1d7b010401,True,37.765052,-122.4218661,Valencia St at 16th St,3,"['CREDITCARD', 'KEY']",http://app.fordgobike.com/Z6gL/SiFlGfIOTF?station_id=98,SF-M22-2,98,San Francisco,San Francisco
84,19,False,False,314fd7e5-4335-4b89-ac9d-2c099bc33d9f,True,37.7670373,-122.4154425,Folsom St at 15th St,3,"['CREDITCARD', 'KEY']",http://app.fordgobike.com/Z6gL/SiFlGfIOTF?station_id=99,SF-M24,99,San Francisco,San Francisco
85,19,False,False,f3e171b4-04b0-418f-9d82-e62f4df245d8,True,37.7671004,-122.410662,Bryant St at 15th St,3,"['CREDITCARD', 'KEY']",http://app.fordgobike.com/Z6gL/SiFlGfIOTF?station_id=100,SF-M25,100,San Francisco,San Francisco
86,27,False,False,fdbfa7f9-d3eb-4c9d-ab6c-0e3300da314e,True,37.767078504583665,-122.40735858678818,15th St at Potrero Ave,3,"['CREDITCARD', 'KEY']",http://app.fordgobike.com/Z6gL/SiFlGfIOTF?station_id=101,SF-M26,101,San Francisco,San Francisco
87,27,False,False,7a555b4b-c8fa-456d-a8bb-4cb7c8bbbffa,True,37.7668828,-122.3995794,Irwin St at 8th St,3,"['CREDITCARD', 'KEY']",http://app.fordgobike.com/Z6gL/SiFlGfIOTF?station_id=102,SF-M27,102,San Francisco,San Francisco
88,35,False,False,482f48f4-7ed6-4e69-a778-a2aba0f39c80,True,37.76704457969368,-122.39083349704742,4th St at 16th St,3,"['CREDITCARD', 'KEY']",http://app.fordgobike.com/Z6gL/SiFlGfIOTF?station_id=104,SF-M30,104,San Francisco,San Francisco
89,19,False,False,84dfbc77-fe18-4e2c-9f89-9edb8aeaee2c,True,37.764285,-122.4318042,16th St at Prosper St,3,"['CREDITCARD', 'KEY']",http://app.fordgobike.com/Z6gL/SiFlGfIOTF?station_id=105,SF-N20-1,105,San Francisco,San Francisco
90,19,False,False,4cfebcba-c209-4f34-bcd3-2e6c4cdaee34,True,37.7632417,-122.4306746,Sanchez St at 17th St,3,"['CREDITCARD', 'KEY']",http://app.fordgobike.com/Z6gL/SiFlGfIOTF?station_id=106,SF-N20-2,106,San Francisco,San Francisco
91,23,False,False,3ccf483a-ed9f-4327-bf9b-d72b4170ebfc,True,37.7630152,-122.4264968,17th St at Dolores St,3,"['CREDITCARD', 'KEY']",http://app.fordgobike.com/Z6gL/SiFlGfIOTF?station_id=107,SF-N21,107,San Francisco,San Francisco
92,11,False,False,d6ced8f4-977a-441a-86f0-27381b495794,True,37.76471008581914,-122.41995692253113,16th St Mission BART,3,"['CREDITCARD', 'KEY']",http://app.fordgobike.com/Z6gL/SiFlGfIOTF?station_id=108,SF-N22-1A,108,San Francisco,San Francisco
93,23,False,False,18fb1a9a-e3ee-4a18-a00d-45c1e0d14d16,True,37.7633158,-122.4219039,17th St at Valencia St,3,"['CREDITCARD', 'KEY']",http://app.fordgobike.com/Z6gL/SiFlGfIOTF?station_id=109,SF-N22-2,109,San Francisco,San Francisco
94,23,False,False,d6ebe802-3db6-4106-b3c7-4791c801a91f,True,37.7637085,-122.4152042,17th & Folsom Street Park (17th St at Folsom St),3,"['CREDITCARD', 'KEY']",http://app.fordgobike.com/Z6gL/SiFlGfIOTF?station_id=110,SF-N23,110,San Francisco,San Francisco
95,19,False,False,4d2b40cb-88e2-4371-8532-b1e52e797c8c,True,37.7638471,-122.4130036,Harrison St at 17th St,3,"['CREDITCARD', 'KEY']",http://app.fordgobike.com/Z6gL/SiFlGfIOTF?station_id=112,SF-N24-2,112,San Francisco,San Francisco
96,19,False,False,906d869e-f513-4c60-ab76-15e2ddc68632,True,37.764555,-122.410345,Franklin Square,3,"['CREDITCARD', 'KEY']",http://app.fordgobike.com/Z6gL/SiFlGfIOTF?station_id=113,SF-N25,113,San Francisco,San Francisco
97,19,False,False,b3c834af-571f-4fee-808b-ae2a7c018b5c,True,37.7644783,-122.4025701,Rhode Island St at 17th St,3,"['CREDITCARD', 'KEY']",http://app.fordgobike.com/Z6gL/SiFlGfIOTF?station_id=114,SF-N27,114,San Francisco,San Francisco
98,27,False,False,40aad9cb-3190-4190-b73f-95aa661cec18,True,37.7650259,-122.3987734,Jackson Playground,3,"['CREDITCARD', 'KEY']",http://app.fordgobike.com/Z6gL/SiFlGfIOTF?station_id=115,SF-N28,115,San Francisco,San Francisco
99,31,False,False,9a97cfb1-8882-4dfc-a075-2c22d646e457,True,37.7648022,-122.3947713,Mississippi St at 17th St,3,"['CREDITCARD', 'KEY']",http://app.fordgobike.com/Z6gL/SiFlGfIOTF?station_id=116,SF-N29,116,San Francisco,San Francisco
100,19,False,False,38a49a05-7382-4a28-b6b1-b57c6fe99745,True,37.7591769,-122.4369431,Eureka Valley Recreation Center,3,"['CREDITCARD', 'KEY']",http://app.fordgobike.com/Z6gL/SiFlGfIOTF?station_id=118,SF-O18,118,San Francisco,San Francisco
101,15,False,False,cd7359fc-6798-48ed-af32-9d5f6cff9ffa,True,37.7610471,-122.4326417,18th St at Noe St,3,"['CREDITCARD', 'KEY']",http://app.fordgobike.com/Z6gL/SiFlGfIOTF?station_id=119,SF-O19,119,San Francisco,San Francisco
102,27,False,False,53bea4e6-b907-424c-b519-d286ffb713d8,True,37.7614205,-122.4264353,Mission Dolores Park,3,"['CREDITCARD', 'KEY']",http://app.fordgobike.com/Z6gL/SiFlGfIOTF?station_id=120,SF-O21,120,San Francisco,San Francisco
103,23,False,False,f6c0f2ed-11cc-4b74-9d03-f2b298c9bd1b,True,37.7592103,-122.4213392,Mission Playground,3,"['CREDITCARD', 'KEY']",http://app.fordgobike.com/Z6gL/SiFlGfIOTF?station_id=121,SF-O22,121,San Francisco,San Francisco
104,19,False,False,f8b56cb7-cb70-4097-99c4-446fc29600c9,True,37.760299,-122.418892,19th St at Mission St,3,"['CREDITCARD', 'KEY']",http://app.fordgobike.com/Z6gL/SiFlGfIOTF?station_id=122,SF-O23,122,San Francisco,San Francisco
105,19,False,False,aa6d4372-55f7-451a-a9ab-a546001fd8f7,True,37.7605936,-122.4148171,Folsom St at 19th St,3,"['CREDITCARD', 'KEY']",http://app.fordgobike.com/Z6gL/SiFlGfIOTF?station_id=123,SF-O24,123,San Francisco,San Francisco
106,19,False,False,fb24c862-b4cf-45e1-9008-4812aa8370fd,True,37.7604469,-122.410807,19th St at Florida St,3,"['CREDITCARD', 'KEY']",http://app.fordgobike.com/Z6gL/SiFlGfIOTF?station_id=124,SF-O25-1,124,San Francisco,San Francisco
107,15,False,False,b3af6593-57d4-4b9a-ba7a-b2d8051bc6b9,True,37.7592005,-122.409851,20th St at Bryant St,3,"['CREDITCARD', 'KEY']",http://app.fordgobike.com/Z6gL/SiFlGfIOTF?station_id=125,SF-O25-2,125,San Francisco,San Francisco
108,31,False,False,0b596735-1b55-4aaa-8421-2ac1a39267b1,True,37.7616343,-122.3906477,Esprit Park,3,"['CREDITCARD', 'KEY']",http://app.fordgobike.com/Z6gL/SiFlGfIOTF?station_id=126,SF-O30,126,San Francisco,San Francisco
109,23,False,False,08a1a4d2-e83a-4911-8743-41006698f4da,True,37.7567083,-122.421025,Valencia St at 21st St,3,"['CREDITCARD', 'KEY']",http://app.fordgobike.com/Z6gL/SiFlGfIOTF?station_id=127,SF-P22,127,San Francisco,San Francisco
110,19,False,False,cae028f4-b136-4297-8f28-559986e3f810,True,37.758862,-122.412544,Harrison St at 20th St,3,"['CREDITCARD', 'KEY']",http://app.fordgobike.com/Z6gL/SiFlGfIOTF?station_id=129,SF-P24,129,San Francisco,San Francisco
111,31,False,False,e7691d93-eed6-4388-b681-00ae0b455d23,True,37.75770404149008,-122.39188492298126,22nd St Caltrain Station,3,"['CREDITCARD', 'KEY']",http://app.fordgobike.com/Z6gL/SiFlGfIOTF?station_id=130,SF-P30,130,San Francisco,San Francisco
112,23,False,False,578169a8-b821-427d-934e-0b5329577ea4,True,37.75500026037814,-122.42572769522668,22nd St at Dolores St,3,"['CREDITCARD', 'KEY']",http://app.fordgobike.com/Z6gL/SiFlGfIOTF?station_id=131,SF-Q21-1,131,San Francisco,San Francisco
113,19,False,False,2ed84bed-e42a-4f0d-a059-78a709748616,True,37.7518194,-122.4266139,24th St at Chattanooga St,3,"['CREDITCARD', 'KEY']",http://app.fordgobike.com/Z6gL/SiFlGfIOTF?station_id=132,SF-Q21-2,132,San Francisco,San Francisco
114,23,False,False,759c388e-ab9b-40c2-ae96-ee5190264916,True,37.7552126,-122.4209752,Valencia St at 22nd St,3,"['CREDITCARD', 'KEY']",http://app.fordgobike.com/Z6gL/SiFlGfIOTF?station_id=133,SF-Q22-1,133,San Francisco,San Francisco
115,23,False,False,3437ead2-e5e0-4e1c-86cf-d925a96b2260,True,37.7524278,-122.4206278,Valencia St at 24th St,3,"['CREDITCARD', 'KEY']",http://app.fordgobike.com/Z6gL/SiFlGfIOTF?station_id=134,SF-Q22-2,134,San Francisco,San Francisco
116,19,False,False,b6190b6b-1f42-4b69-ab79-d6cfa18adea7,True,37.750506,-122.4339496,Jersey St at Castro St,3,"['CREDITCARD', 'KEY']",http://app.fordgobike.com/Z6gL/SiFlGfIOTF?station_id=137,SF-R19,137,San Francisco,San Francisco
117,19,False,False,673c88d0-961a-45ff-b394-ac9a33e58d55,True,37.7509004,-122.4274114,Jersey St at Church St,3,"['CREDITCARD', 'KEY']",http://app.fordgobike.com/Z6gL/SiFlGfIOTF?station_id=138,SF-R20,138,San Francisco,San Francisco
118,23,False,False,1d0da57a-5fe4-48af-b66b-5f380706eb4e,True,37.7510171,-122.4119009,Garfield Square (25th St at Harrison St),3,"['CREDITCARD', 'KEY']",http://app.fordgobike.com/Z6gL/SiFlGfIOTF?station_id=139,SF-R24,139,San Francisco,San Francisco
119,15,False,False,9202aa09-26ee-4220-9281-c66b7bbe7b38,True,37.7478584,-122.4249863,Cesar Chavez St at Dolores St,3,"['CREDITCARD', 'KEY']",http://app.fordgobike.com/Z6gL/SiFlGfIOTF?station_id=140,SF-S21,140,San Francisco,San Francisco
120,19,False,False,fb66d43b-6d13-411c-ac2d-e26fbca0b0f2,True,37.7479981,-122.4202187,Valencia St at Cesar Chavez St,3,"['CREDITCARD', 'KEY']",http://app.fordgobike.com/Z6gL/SiFlGfIOTF?station_id=141,SF-S22-1,141,San Francisco,San Francisco
121,15,False,False,aacc087a-f075-4682-a0df-be4c30c4a632,True,37.745738796183325,-122.42214024066925,Guerrero Park,3,"['CREDITCARD', 'KEY']",http://app.fordgobike.com/Z6gL/SiFlGfIOTF?station_id=142,SF-S22-2,142,San Francisco,San Francisco
122,15,False,False,615bca10-5b2a-4b7e-876c-04c4d3d9e360,True,37.7472996,-122.4114029,Precita Park,3,"['CREDITCARD', 'KEY']",http://app.fordgobike.com/Z6gL/SiFlGfIOTF?station_id=144,SF-S24,144,San Francisco,San Francisco
123,15,False,False,0fc2ae3f-b5ac-493b-bd93-8300b601f9db,True,37.7436839,-122.4268059,29th St at Church St,3,"['CREDITCARD', 'KEY']",http://app.fordgobike.com/Z6gL/SiFlGfIOTF?station_id=145,SF-T20,145,San Francisco,San Francisco
124,15,False,False,c7879d87-34c8-4b23-9c07-250fb012bd4b,True,37.7423139,-122.4231805,30th St at San Jose Ave,3,"['CREDITCARD', 'KEY']",http://app.fordgobike.com/Z6gL/SiFlGfIOTF?station_id=146,SF-T21,146,San Francisco,San Francisco
125,19,False,False,86e91819-05c0-4150-ab16-83d8480dc7f4,True,37.7440667,-122.4214722,29th St at Tiffany Ave,3,"['CREDITCARD', 'KEY']",http://app.fordgobike.com/Z6gL/SiFlGfIOTF?station_id=147,SF-T22,147,San Francisco,San Francisco
126,23,False,False,8f409200-2adf-4b2d-b675-6befa5adc6e3,True,37.8297046,-122.2876102,Horton St at 40th St,13,"['CREDITCARD', 'KEY']",http://app.fordgobike.com/Z6gL/SiFlGfIOTF?station_id=148,EM-D2,148,Emeryville,East Bay
127,23,False,False,47f5b0d6-a2db-482c-9680-10759094c4a4,True,37.8312752,-122.2856333,Emeryville Town Hall,13,"['CREDITCARD', 'KEY']",http://app.fordgobike.com/Z6gL/SiFlGfIOTF?station_id=149,EM-D3,149,Emeryville,East Bay
128,15,False,False,789f4684-fb14-456b-ad02-87ee28d80ff1,True,37.8312769,-122.2782669,Adeline St at 40th St,13,"['CREDITCARD', 'KEY']",http://app.fordgobike.com/Z6gL/SiFlGfIOTF?station_id=150,EM-D4,150,Emeryville,East Bay
129,23,False,False,31871354-8b20-4566-9044-f70ac57026dc,True,37.8361823,-122.2871801,53rd St at Hollis St,13,"['CREDITCARD', 'KEY']",http://app.fordgobike.com/Z6gL/SiFlGfIOTF?station_id=151,EM-C2,151,Emeryville,East Bay
130,19,False,False,1eef0966-a6b6-4da1-8726-09989c2eb044,True,37.83563220458518,-122.28105068206787,47th St at San Pablo Ave,13,"['CREDITCARD', 'KEY']",http://app.fordgobike.com/Z6gL/SiFlGfIOTF?station_id=152,EM-C3,152,Emeryville,East Bay
131,19,False,False,5ea1329c-9fe6-4c24-9de7-34967a9fa428,True,37.8409452,-122.2913604,59th St at Horton St,13,"['CREDITCARD', 'KEY']",http://app.fordgobike.com/Z6gL/SiFlGfIOTF?station_id=153,EM-A1,153,Emeryville,East Bay
132,15,False,False,4fea6876-e80d-4a29-9966-820ac15cd3b4,True,37.8419238,-122.2880451,Doyle St at 59th St,13,"['CREDITCARD', 'KEY']",http://app.fordgobike.com/Z6gL/SiFlGfIOTF?station_id=154,EM-A2,154,Emeryville,East Bay
133,19,False,False,998afb43-2436-4f11-9ed1-380c9abc3e55,True,37.84052116694969,-122.29352831840515,Emeryville Public Market,13,"['CREDITCARD', 'KEY']",http://app.fordgobike.com/Z6gL/SiFlGfIOTF?station_id=155,EM-B1,155,Emeryville,East Bay
134,15,False,False,9da2121d-d8a8-464d-a396-cd41c9487bc4,True,37.8384435,-122.2886647,Stanford Ave at Hollis St,13,"['CREDITCARD', 'KEY']",http://app.fordgobike.com/Z6gL/SiFlGfIOTF?station_id=156,EM-B2,156,Emeryville,East Bay
135,19,False,False,83f44c93-d153-49b3-a8af-a6b4a7ea85db,True,37.8467842,-122.2913761,65th St at Hollis St,13,"['CREDITCARD', 'KEY']",http://app.fordgobike.com/Z6gL/SiFlGfIOTF?station_id=157,EM-C1,157,Emeryville,East Bay
136,19,False,False,c3f56bed-65e3-425b-999e-82b3a4f73aeb,True,37.8332786,-122.2634901,Shattuck Ave at Telegraph Ave,12,"['CREDITCARD', 'KEY']",http://app.fordgobike.com/Z6gL/SiFlGfIOTF?station_id=158,OK-E4,158,Oakland,East Bay
137,19,False,False,92045ce2-112c-4cd9-ae42-39aac4f43e86,True,37.8160598,-122.2782444,24th St at Market St,12,"['CREDITCARD', 'KEY']",http://app.fordgobike.com/Z6gL/SiFlGfIOTF?station_id=159,OK-J3,159,Oakland,East Bay
138,23,False,False,270425db-c369-4d4b-b8de-fae86c896a3c,True,37.8053183,-122.2948365,West Oakland BART Station,12,"['CREDITCARD', 'KEY']",http://app.fordgobike.com/Z6gL/SiFlGfIOTF?station_id=160,OK-M1,160,Oakland,East Bay
139,27,False,False,09c20e68-4f8c-4723-ae8f-bac3dd927848,True,37.8005161,-122.2720799,Franklin St at 9th St,12,"['CREDITCARD', 'KEY']",http://app.fordgobike.com/Z6gL/SiFlGfIOTF?station_id=162,OK-M6,162,Oakland,East Bay
140,27,False,False,ce264eb5-ebfe-4a03-8bd3-e319c32614ec,True,37.7973195,-122.2653199,Lake Merritt BART Station,12,"['CREDITCARD', 'KEY']",http://app.fordgobike.com/Z6gL/SiFlGfIOTF?station_id=163,OK-M7,163,Oakland,East Bay
141,19,False,False,e9b45d4b-900e-4d9f-bb75-74dcea012859,True,37.814988230424156,-122.27484405040741,Isabella St at San Pablo Ave,12,"['CREDITCARD', 'KEY']",http://app.fordgobike.com/Z6gL/SiFlGfIOTF?station_id=164,OK-J4,164,Oakland,East Bay
142,15,False,False,76d7eeec-413a-4940-9bc2-8222d35f8fdc,True,37.8513755,-122.2525233,College Ave at Alcatraz Ave,14,"['CREDITCARD', 'KEY']",http://app.fordgobike.com/Z6gL/SiFlGfIOTF?station_id=166,BK-A3,166,Berkeley,East Bay
143,19,False,False,b4717e68-fb91-4e74-819f-4a9580a84ca5,True,37.848152,-122.2521599,College Ave at Harwood Ave,12,"['CREDITCARD', 'KEY']",http://app.fordgobike.com/Z6gL/SiFlGfIOTF?station_id=167,OK-A4,167,Oakland,East Bay
144,15,False,False,04059da9-ebad-42e8-928b-14e5e3edf26f,True,37.849594967776646,-122.26556897163393,Alcatraz Ave at Shattuck Ave,12,"['CREDITCARD', 'KEY']",http://app.fordgobike.com/Z6gL/SiFlGfIOTF?station_id=168,OK-B1,168,Oakland,East Bay
145,19,False,False,48e675de-7b94-49ff-bb5e-fa146c243599,True,37.8465156,-122.2653043,Bushrod Park,12,"['CREDITCARD', 'KEY']",http://app.fordgobike.com/Z6gL/SiFlGfIOTF?station_id=169,OK-B2,169,Oakland,East Bay
146,15,False,False,50518b51-6910-4f71-bb20-7b0d0fc4f4b7,True,37.8444927,-122.261351,Telegraph Ave at 58th St,12,"['CREDITCARD', 'KEY']",http://app.fordgobike.com/Z6gL/SiFlGfIOTF?station_id=170,OK-B3,170,Oakland,East Bay
147,24,False,False,31146111-fc8f-4107-9087-1a160eefaa54,True,37.84427875399067,-122.251900434494,Rockridge BART Station,12,"['CREDITCARD', 'KEY']",http://app.fordgobike.com/Z6gL/SiFlGfIOTF?station_id=171,OK-B4,171,Oakland,East Bay
148,15,False,False,5f13426c-73f2-4272-a498-f11ff007e8d3,True,37.8417999,-122.2515349,College Ave at Taft Ave,12,"['CREDITCARD', 'KEY']",http://app.fordgobike.com/Z6gL/SiFlGfIOTF?station_id=172,OK-B5,172,Oakland,East Bay
149,15,False,False,cd4b4099-e2f5-4d46-bc1f-ed96d22548cc,True,37.8403643,-122.2644881,Shattuck Ave at 55th St,12,"['CREDITCARD', 'KEY']",http://app.fordgobike.com/Z6gL/SiFlGfIOTF?station_id=173,OK-D3-1,173,Oakland,East Bay
150,19,False,False,dcf29fa9-3304-4f6f-90eb-ef48ada9dbfe,True,37.8368013,-122.2640037,Shattuck Ave at 51st St,12,"['CREDITCARD', 'KEY']",http://app.fordgobike.com/Z6gL/SiFlGfIOTF?station_id=174,OK-D3-2,174,Oakland,East Bay
151,15,False,False,971307f6-5491-4112-beac-6b6960af6c0d,True,37.8359455,-122.2623663,49th St at Telegraph Ave,12,"['CREDITCARD', 'KEY']",http://app.fordgobike.com/Z6gL/SiFlGfIOTF?station_id=175,OK-D4,175,Oakland,East Bay
152,31,False,False,1af8102a-589a-47ea-97ec-4589b71403aa,True,37.82840997305853,-122.26631462574005,MacArthur BART Station,12,"['CREDITCARD', 'KEY']",http://app.fordgobike.com/Z6gL/SiFlGfIOTF?station_id=176,OK-F4,176,Oakland,East Bay
153,19,False,False,f3db9065-9d34-451e-ae8e-930612f8b8d7,True,37.8262863,-122.2651002,MacArthur Blvd at Telegraph Ave,12,"['CREDITCARD', 'KEY']",http://app.fordgobike.com/Z6gL/SiFlGfIOTF?station_id=177,OK-G4,177,Oakland,East Bay
154,19,False,False,b96ee0c1-a83b-4f0c-9eae-4592672b3e86,True,37.8193814,-122.2619284,Broadway at 30th St,12,"['CREDITCARD', 'KEY']",http://app.fordgobike.com/Z6gL/SiFlGfIOTF?station_id=178,OK-H5,178,Oakland,East Bay
155,19,False,False,a0b6621e-016f-4a91-918c-2140bfd9813c,True,37.816073115011406,-122.26788640022278,Telegraph Ave at 27th St,12,"['CREDITCARD', 'KEY']",http://app.fordgobike.com/Z6gL/SiFlGfIOTF?station_id=179,OK-I5,179,Oakland,East Bay
156,19,False,False,74e8630e-7e2a-447f-ae87-5c9898c7346a,True,37.8126783,-122.2687726,Telegraph Ave at 23rd St,12,"['CREDITCARD', 'KEY']",http://app.fordgobike.com/Z6gL/SiFlGfIOTF?station_id=180,OK-J5,180,Oakland,East Bay
157,27,False,False,cb84be53-d226-47fc-aa81-789c037361d4,True,37.8113768,-122.2651925,Grand Ave at Webster St,12,"['CREDITCARD', 'KEY']",http://app.fordgobike.com/Z6gL/SiFlGfIOTF?station_id=181,OK-J6-1,181,Oakland,East Bay
158,35,False,False,6977a0c8-f59f-4d97-9868-e7b20cc2fdad,True,37.8090126,-122.2682473,19th Street BART Station,12,"['CREDITCARD', 'KEY']",http://app.fordgobike.com/Z6gL/SiFlGfIOTF?station_id=182,OK-K5-2,182,Oakland,East Bay
159,27,False,False,f1ee54eb-4abe-4158-9c82-53bcc640fc77,True,37.8087021,-122.2699271,Telegraph Ave at 19th St,12,"['CREDITCARD', 'KEY']",http://app.fordgobike.com/Z6gL/SiFlGfIOTF?station_id=183,OK-K5-1,183,Oakland,East Bay
160,27,False,False,b8398469-a2ba-4d86-8f5a-07f9883796bd,True,37.8013189,-122.2626418,Lakeside Dr at 14th St,12,"['CREDITCARD', 'KEY']",http://app.fordgobike.com/Z6gL/SiFlGfIOTF?station_id=186,OK-L7-2,186,Oakland,East Bay
161,27,False,False,759daccc-7f53-4b29-ab07-cf2d75a10610,True,37.796248,-122.279352,Jack London Square,12,"['CREDITCARD', 'KEY']",http://app.fordgobike.com/Z6gL/SiFlGfIOTF?station_id=187,OK-N6,187,Oakland,East Bay
162,15,False,False,9cb2f8b5-0d32-4a15-a4f1-3990595156de,True,37.8426295,-122.267738,Dover St at 57th St,12,"['CREDITCARD', 'KEY']",http://app.fordgobike.com/Z6gL/SiFlGfIOTF?station_id=188,OK-C2,188,Oakland,East Bay
163,15,False,False,a247eef9-7ee3-4827-8ddb-fbd8daca7a0b,True,37.8396488,-122.2717561,Genoa St at 55th St,12,"['CREDITCARD', 'KEY']",http://app.fordgobike.com/Z6gL/SiFlGfIOTF?station_id=189,OK-D2,189,Oakland,East Bay
164,23,False,False,b6e253b2-285d-4363-ae46-24e7c221cc08,True,37.8302232,-122.2709501,West St at 40th St,12,"['CREDITCARD', 'KEY']",http://app.fordgobike.com/Z6gL/SiFlGfIOTF?station_id=190,OK-F3,190,Oakland,East Bay
165,15,False,False,316f6785-47aa-4e37-b81b-3cf829bf5120,True,37.8305452,-122.2739367,Market St at 40th St,12,"['CREDITCARD', 'KEY']",http://app.fordgobike.com/Z6gL/SiFlGfIOTF?station_id=191,OK-G2,191,Oakland,East Bay
166,23,False,False,73295cf1-c5e1-41dd-8cd7-eab6512e8a34,True,37.82669558640968,-122.27179706096648,37th St at West St,12,"['CREDITCARD', 'KEY']",http://app.fordgobike.com/Z6gL/SiFlGfIOTF?station_id=192,OK-G3,192,Oakland,East Bay
167,19,False,False,1c2e5680-719b-4674-9837-092c367594ba,True,37.8127441,-122.2472152,Grand Ave at Santa Clara Ave,12,"['CREDITCARD', 'KEY']",http://app.fordgobike.com/Z6gL/SiFlGfIOTF?station_id=193,OK-H9-1,193,Oakland,East Bay
168,15,False,False,717e6e13-e1b2-4c13-944d-823a556c1635,True,37.8110807,-122.2432677,Lakeshore Ave at Trestle Glen Rd,12,"['CREDITCARD', 'KEY']",http://app.fordgobike.com/Z6gL/SiFlGfIOTF?station_id=194,OK-H9-2,194,Oakland,East Bay
169,23,False,False,422ab254-5c2c-4a9c-9368-a49e8dab3ebf,True,37.81231409135146,-122.26077854633331,Bay Pl at Vernon St,12,"['CREDITCARD', 'KEY']",http://app.fordgobike.com/Z6gL/SiFlGfIOTF?station_id=195,OK-I6,195,Oakland,East Bay
170,23,False,False,d5eedd49-f998-4b8a-9d1a-22853da216aa,True,37.80889393398715,-122.25646018981932,Grand Ave at Perkins St,12,"['CREDITCARD', 'KEY']",http://app.fordgobike.com/Z6gL/SiFlGfIOTF?station_id=196,OK-I8,196,Oakland,East Bay
171,23,False,False,70b61cdb-7b5d-4455-84e4-9b9c697b6740,True,37.8088479,-122.2496799,El Embarcadero at Grand Ave,12,"['CREDITCARD', 'KEY']",http://app.fordgobike.com/Z6gL/SiFlGfIOTF?station_id=197,OK-I9,197,Oakland,East Bay
172,31,False,False,5fdc3d6d-e9c8-47cf-874e-d2f012cfb217,True,37.80781318217903,-122.26449608802795,Snow Park,12,"['CREDITCARD', 'KEY']",http://app.fordgobike.com/Z6gL/SiFlGfIOTF?station_id=198,OK-J6-2,198,Oakland,East Bay
173,19,False,False,7655722c-16c0-4996-9d92-4848ece2fc35,True,37.800213566969795,-122.25381016731262,2nd Ave at E 18th St,12,"['CREDITCARD', 'KEY']",http://app.fordgobike.com/Z6gL/SiFlGfIOTF?station_id=200,OK-K9,200,Oakland,East Bay
174,23,False,False,7018fb4d-6799-4a20-8ea4-739f789cd096,True,37.7976728,-122.2629973,10th St at Fallon St,12,"['CREDITCARD', 'KEY']",http://app.fordgobike.com/Z6gL/SiFlGfIOTF?station_id=201,OK-L8,201,Oakland,East Bay
175,27,False,False,8f34c934-e51e-4b0f-810c-916618b6cd90,True,37.8007544,-122.2748943,Washington St at 8th St,12,"['CREDITCARD', 'KEY']",http://app.fordgobike.com/Z6gL/SiFlGfIOTF?station_id=202,OK-M5,202,Oakland,East Bay
176,27,False,False,7686b58c-88a3-4ca8-a898-d4bcccf520b3,True,37.795194764385954,-122.27396965026855,Webster St at 2nd St,12,"['CREDITCARD', 'KEY']",http://app.fordgobike.com/Z6gL/SiFlGfIOTF?station_id=203,OK-N7,203,Oakland,East Bay
177,19,False,False,bf463e48-e629-4fed-9e7e-551e5c5a1af7,True,37.8401858,-122.2618225,55th St at Telegraph Ave,12,"['CREDITCARD', 'KEY']",http://app.fordgobike.com/Z6gL/SiFlGfIOTF?station_id=204,OK-C3,204,Oakland,East Bay
178,19,False,False,ffbf423a-2c1b-447a-a47d-9c1fddd152be,True,37.8388,-122.258732,Miles Ave at Cavour St,12,"['CREDITCARD', 'KEY']",http://app.fordgobike.com/Z6gL/SiFlGfIOTF?station_id=205,OK-C4,205,Oakland,East Bay
179,23,False,False,b31a7464-fb7f-4554-a89b-ef8b4c97a367,True,37.8381269,-122.2512714,College Ave at Bryant Ave,12,"['CREDITCARD', 'KEY']",http://app.fordgobike.com/Z6gL/SiFlGfIOTF?station_id=206,OK-C5,206,Oakland,East Bay
180,23,False,False,67ed16db-4800-4671-bba4-e8ef52d6d74e,True,37.8357883,-122.2516207,Broadway at Coronado Ave,12,"['CREDITCARD', 'KEY']",http://app.fordgobike.com/Z6gL/SiFlGfIOTF?station_id=207,OK-D5,207,Oakland,East Bay
181,19,False,False,453a6d0d-31ce-4204-b2e1-2f9532e4b356,True,37.33279952386071,-121.88385039567946,4th St at San Carlos St,5,"['CREDITCARD', 'KEY']",http://app.fordgobike.com/Z6gL/SiFlGfIOTF?station_id=208,SJ-N10-1,208,San Jose,South Bay
182,19,False,False,1dedc5ae-882d-4bb0-bcfe-33604cc116df,True,37.8335577,-122.2674183,45th St at MLK Jr Way,12,"['CREDITCARD', 'KEY']",http://app.fordgobike.com/Z6gL/SiFlGfIOTF?station_id=209,OK-E3,209,Oakland,East Bay
183,23,False,False,42019e90-fa74-4a77-9051-5dfed81a32de,True,37.8332935222321,-122.25622415542603,45th St at Manila,12,"['CREDITCARD', 'KEY']",http://app.fordgobike.com/Z6gL/SiFlGfIOTF?station_id=210,OK-E5,210,Oakland,East Bay
184,23,False,False,76d741e6-6b22-4d6a-a16f-8dbd7ab51c6f,True,37.8277573,-122.2567156,Broadway at 40th St,12,"['CREDITCARD', 'KEY']",http://app.fordgobike.com/Z6gL/SiFlGfIOTF?station_id=211,OK-F5,211,Oakland,East Bay
185,31,False,False,4298a24b-394a-491d-9d8f-df90f381b187,True,37.824892529951114,-122.26043654610294,Mosswood Park,12,"['CREDITCARD', 'KEY']",http://app.fordgobike.com/Z6gL/SiFlGfIOTF?station_id=212,OK-G5,212,Oakland,East Bay
186,15,False,False,df2bc9c0-0377-46c8-83ea-ef7ef9dcdb4d,True,37.8238474,-122.2811926,32nd St at Adeline St,12,"['CREDITCARD', 'KEY']",http://app.fordgobike.com/Z6gL/SiFlGfIOTF?station_id=213,OK-H2,213,Oakland,East Bay
187,19,False,False,77948e35-f1c6-4ff9-9d8c-787a16b20a27,True,37.8233214,-122.2757325,Market St at Brockhurst St,12,"['CREDITCARD', 'KEY']",http://app.fordgobike.com/Z6gL/SiFlGfIOTF?station_id=214,OK-H3,214,Oakland,East Bay
188,23,False,False,b0f5f6bc-86db-4670-be8d-4112719fbd71,True,37.8225475,-122.2663179,34th St at Telegraph Ave,12,"['CREDITCARD', 'KEY']",http://app.fordgobike.com/Z6gL/SiFlGfIOTF?station_id=215,OK-H4-3,215,Oakland,East Bay
189,19,False,False,8a7e7744-c516-46b9-b079-2a6d3afc2383,True,37.8178269,-122.2756976,San Pablo Ave at 27th St,12,"['CREDITCARD', 'KEY']",http://app.fordgobike.com/Z6gL/SiFlGfIOTF?station_id=216,OK-I3,216,Oakland,East Bay
190,19,False,False,10334650-998e-4022-a883-2c3110edeb40,True,37.8170154,-122.2717615,27th St at MLK Jr Way,12,"['CREDITCARD', 'KEY']",http://app.fordgobike.com/Z6gL/SiFlGfIOTF?station_id=217,OK-I4,217,Oakland,East Bay
191,15,False,False,1af8f901-8697-4128-b6c8-45c7c7f2c684,True,37.8123315,-122.2851712,DeFremery Park,12,"['CREDITCARD', 'KEY']",http://app.fordgobike.com/Z6gL/SiFlGfIOTF?station_id=218,OK-K2,218,Oakland,East Bay
192,19,False,False,77476eaf-b0a1-473b-8e68-9d6a312545b1,True,37.8098236,-122.2801923,Marston Campbell Park,12,"['CREDITCARD', 'KEY']",http://app.fordgobike.com/Z6gL/SiFlGfIOTF?station_id=219,OK-K3,219,Oakland,East Bay
193,19,False,False,924ea8a9-841d-43b5-99a9-bff7ca8d4b64,True,37.8113514,-122.2734217,San Pablo Ave at MLK Jr Way,12,"['CREDITCARD', 'KEY']",http://app.fordgobike.com/Z6gL/SiFlGfIOTF?station_id=220,OK-K4,220,Oakland,East Bay
194,15,False,False,ddc82a89-0b7e-41a7-ba69-05e3776d13cf,True,37.794396,-122.253842,6th Ave at E 12th St (Temporary Location),12,"['CREDITCARD', 'KEY']",http://app.fordgobike.com/Z6gL/SiFlGfIOTF?station_id=221,OK-L10,221,Oakland,East Bay
195,15,False,False,4c05cf62-fcee-4f55-960f-aeccd2b09735,True,37.7927143,-122.2487796,10th Ave at E 15th St,12,"['CREDITCARD', 'KEY']",http://app.fordgobike.com/Z6gL/SiFlGfIOTF?station_id=222,OK-L11,222,Oakland,East Bay
196,19,False,False,cdc26b4b-f9dc-4b00-8cf4-1665b5bf8afd,True,37.7647652154977,-122.42009103298186,16th St Mission BART Station 2,3,"['CREDITCARD', 'KEY']",http://app.fordgobike.com/Z6gL/SiFlGfIOTF?station_id=223,SF-N22-1B,223,San Francisco,San Francisco
197,15,False,False,885754e6-88c9-46ed-9376-f1b035a71b54,True,37.78485466229441,-122.23930478096008,21st Ave at International Blvd,12,"['CREDITCARD', 'KEY']",http://app.fordgobike.com/Z6gL/SiFlGfIOTF?station_id=224,OK-L13,224,Oakland,East Bay
198,15,False,False,6b89ea9f-180b-4954-8eab-6cfeb2b66027,True,37.7851915,-122.2343822,23rd Ave at Foothill Blvd,12,"['CREDITCARD', 'KEY']",http://app.fordgobike.com/Z6gL/SiFlGfIOTF?station_id=225,OK-L14,225,Oakland,East Bay
199,15,False,False,28925943-fddd-4f98-86ef-9f8dbd9bc62d,True,37.781123,-122.2329915,26th Ave at International Blvd,12,"['CREDITCARD', 'KEY']",http://app.fordgobike.com/Z6gL/SiFlGfIOTF?station_id=226,OK-L15,226,Oakland,East Bay
200,15,False,False,ea88423e-8147-4d3e-a51f-22430d3d728c,True,37.7837569,-122.2226033,Foothill Blvd at Fruitvale Ave,12,"['CREDITCARD', 'KEY']",http://app.fordgobike.com/Z6gL/SiFlGfIOTF?station_id=227,OK-L16,227,Oakland,East Bay
201,19,False,False,9ac7060b-f5d5-4ae4-be01-2571b1419d3f,True,37.77993,-122.2177284,Foothill Blvd at Harrington Ave,12,"['CREDITCARD', 'KEY']",http://app.fordgobike.com/Z6gL/SiFlGfIOTF?station_id=228,OK-L17,228,Oakland,East Bay
202,15,False,False,0d6a9101-5b40-4fdf-9315-e494af1baf7b,True,37.7757452,-122.2130372,Foothill Blvd at 42nd Ave,12,"['CREDITCARD', 'KEY']",http://app.fordgobike.com/Z6gL/SiFlGfIOTF?station_id=229,OK-L18,229,Oakland,East Bay
203,15,False,False,a845426e-b1fe-4dab-b7a5-b6e581f4d7dc,True,37.8107432,-122.2914153,14th St at Mandela Pkwy,12,"['CREDITCARD', 'KEY']",http://app.fordgobike.com/Z6gL/SiFlGfIOTF?station_id=230,OK-L2,230,Oakland,East Bay
204,19,False,False,ac5e3053-b3f5-4396-9114-7650b67c7090,True,37.80874983465997,-122.28328227996825,14th St at Filbert St,12,"['CREDITCARD', 'KEY']",http://app.fordgobike.com/Z6gL/SiFlGfIOTF?station_id=231,OK-L3,231,Oakland,East Bay
205,19,False,False,e4921f52-7a6c-4baa-b057-ddc7051980ca,True,37.8061628,-122.2760402,MLK Jr Way at 14th St,12,"['CREDITCARD', 'KEY']",http://app.fordgobike.com/Z6gL/SiFlGfIOTF?station_id=232,OK-L4,232,Oakland,East Bay
206,19,False,False,ddc41c7f-69d7-48a9-a992-d0c543fd6f5e,True,37.795913,-122.255547,4th Ave at E 12th St (Temporary Location),12,"['CREDITCARD', 'KEY']",http://app.fordgobike.com/Z6gL/SiFlGfIOTF?station_id=233,OK-L9,233,Oakland,East Bay
207,19,False,False,51c15f4f-80bb-4c55-9675-70c184bb4318,True,37.778058,-122.2254,Fruitvale Ave at International Blvd,12,"['CREDITCARD', 'KEY']",http://app.fordgobike.com/Z6gL/SiFlGfIOTF?station_id=234,OK-M16,234,Oakland,East Bay
208,19,False,False,e0c59a44-7e14-43bd-99e2-a294b3fc0951,True,37.8072393,-122.2893702,Union St at 10th St,12,"['CREDITCARD', 'KEY']",http://app.fordgobike.com/Z6gL/SiFlGfIOTF?station_id=235,OK-M2,235,Oakland,East Bay
209,23,False,False,2d1b2144-cbf3-4077-8fbb-400c7536613c,True,37.8036865,-122.282497,Market St at 8th St,12,"['CREDITCARD', 'KEY']",http://app.fordgobike.com/Z6gL/SiFlGfIOTF?station_id=236,OK-M3,236,Oakland,East Bay
210,15,False,False,cf1d4581-61da-4ade-97d5-2f856cdb0aad,True,37.7752321,-122.2244982,Fruitvale BART Station,12,"['CREDITCARD', 'KEY']",http://app.fordgobike.com/Z6gL/SiFlGfIOTF?station_id=237,OK-N17,237,Oakland,East Bay
211,23,False,False,3d923c3c-46ea-4a46-84b7-e95916cdb0bd,True,37.8717192,-122.2730677,MLK Jr Way at University Ave,14,"['CREDITCARD', 'KEY']",http://app.fordgobike.com/Z6gL/SiFlGfIOTF?station_id=238,BK-C6,238,Berkeley,East Bay
212,23,False,False,874b7cea-2d90-4978-bc49-b9a38b597f81,True,37.8688126,-122.258764,Bancroft Way at Telegraph Ave,14,"['CREDITCARD', 'KEY']",http://app.fordgobike.com/Z6gL/SiFlGfIOTF?station_id=239,BK-E9-1,239,Berkeley,East Bay
213,19,False,False,318b8d9d-cf10-41a5-988a-860a07f0543d,True,37.8660431,-122.2588044,Haste St at Telegraph Ave,14,"['CREDITCARD', 'KEY']",http://app.fordgobike.com/Z6gL/SiFlGfIOTF?station_id=240,BK-E9-2,240,Berkeley,East Bay
214,23,False,False,25e8f173-3c6f-43d5-9806-af1c72f6f3d8,True,37.8524766,-122.2702132,Ashby BART Station,14,"['CREDITCARD', 'KEY']",http://app.fordgobike.com/Z6gL/SiFlGfIOTF?station_id=241,BK-H6,241,Berkeley,East Bay
215,23,False,False,713e3a3a-c5a6-4f48-a122-c536326bc954,True,37.86012459911685,-122.2693844139576,Milvia St at Derby St,14,"['CREDITCARD', 'KEY']",http://app.fordgobike.com/Z6gL/SiFlGfIOTF?station_id=242,BK-F7,242,Berkeley,East Bay
216,30,False,False,a646ab7e-7396-4009-abb8-0b51171325ff,True,37.8693603,-122.2543374,Bancroft Way at College Ave,14,"['CREDITCARD', 'KEY']",http://app.fordgobike.com/Z6gL/SiFlGfIOTF?station_id=243,BK-E10,243,Berkeley,East Bay
217,23,False,False,b43472b6-2dfc-451e-a668-abc1a1099b6e,True,37.87367621459825,-122.26848721504211,Shattuck Ave at Hearst Ave,14,"['CREDITCARD', 'KEY']",http://app.fordgobike.com/Z6gL/SiFlGfIOTF?station_id=244,BK-C7,244,Berkeley,East Bay
218,29,False,False,7adb5dde-e34a-4964-98d3-f64a940beacb,True,37.870139,-122.268422,Downtown Berkeley BART,14,"['CREDITCARD', 'KEY']",http://app.fordgobike.com/Z6gL/SiFlGfIOTF?station_id=245,BK-D7-1,245,Berkeley,East Bay
219,27,False,False,99665404-d98e-472c-9f68-0016be3601db,True,37.8690599,-122.270556,Berkeley Civic Center,14,"['CREDITCARD', 'KEY']",http://app.fordgobike.com/Z6gL/SiFlGfIOTF?station_id=246,BK-D7-2,246,Berkeley,East Bay
220,23,False,False,a4176220-2f51-47dd-82c4-342dc97867bd,True,37.8677892,-122.2658964,Fulton St at Bancroft Way,14,"['CREDITCARD', 'KEY']",http://app.fordgobike.com/Z6gL/SiFlGfIOTF?station_id=247,BK-E8,247,Berkeley,East Bay
221,19,False,False,f630e61e-56b0-4f69-a91b-2e85b44dfcb7,True,37.8559558,-122.2597949,Telegraph Ave at Ashby Ave,14,"['CREDITCARD', 'KEY']",http://app.fordgobike.com/Z6gL/SiFlGfIOTF?station_id=248,BK-H9,248,Berkeley,East Bay
222,19,False,False,f33b866f-ce2e-4d48-9b2a-cf566ba59039,True,37.8584732,-122.2532529,Russell St at College Ave,14,"['CREDITCARD', 'KEY']",http://app.fordgobike.com/Z6gL/SiFlGfIOTF?station_id=249,BK-H10,249,Berkeley,East Bay
223,27,False,False,930e63db-726c-4276-b3c3-fc51f32b3ddd,True,37.873558,-122.283093,North Berkeley BART Station,14,"['CREDITCARD', 'KEY']",http://app.fordgobike.com/Z6gL/SiFlGfIOTF?station_id=250,BK-C5,250,Berkeley,East Bay
224,15,False,False,f82dccaa-6309-4a54-a405-fe94412f71d6,True,37.87055532905745,-122.27972030639648,California St at University Ave,14,"['CREDITCARD', 'KEY']",http://app.fordgobike.com/Z6gL/SiFlGfIOTF?station_id=251,BK-D5,251,Berkeley,East Bay
225,23,False,False,76709a87-13a8-4df3-a971-073c79fcf6b0,True,37.8658466,-122.2674431,Channing Way at Shattuck Ave,14,"['CREDITCARD', 'KEY']",http://app.fordgobike.com/Z6gL/SiFlGfIOTF?station_id=252,BK-E7,252,Berkeley,East Bay
226,23,False,False,bd5a77f6-ebbe-496b-9887-069c87c7a423,True,37.86641794050319,-122.25379943847655,Haste St at College Ave,14,"['CREDITCARD', 'KEY']",http://app.fordgobike.com/Z6gL/SiFlGfIOTF?station_id=253,BK-E10-,253,Berkeley,East Bay
227,15,False,False,618c724d-9025-470b-8621-4500a9b69773,True,37.88022244590679,-122.26959228515624,Vine St at Shattuck Ave,14,"['CREDITCARD', 'KEY']",http://app.fordgobike.com/Z6gL/SiFlGfIOTF?station_id=254,BK-A7,254,Berkeley,East Bay
228,23,False,False,5d2b4506-3169-4f9a-af15-31c78768917a,True,37.876572549106854,-122.26952791213989,Virginia St at Shattuck Ave,14,"['CREDITCARD', 'KEY']",http://app.fordgobike.com/Z6gL/SiFlGfIOTF?station_id=255,BK-B7,255,Berkeley,East Bay
229,15,False,False,c8b190cd-c4a1-4597-bb18-3d9cc786e9cb,True,37.875111692864444,-122.26055324077606,Hearst Ave at Euclid Ave,14,"['CREDITCARD', 'KEY']",http://app.fordgobike.com/Z6gL/SiFlGfIOTF?station_id=256,BK-B9,256,Berkeley,East Bay
230,15,False,False,08f875e7-d696-4a4d-9656-43f07a953de4,True,37.870407115465376,-122.29967594146727,Fifth St at Delaware St,14,"['CREDITCARD', 'KEY']",http://app.fordgobike.com/Z6gL/SiFlGfIOTF?station_id=257,BK-C1,257,Berkeley,East Bay
231,23,False,False,3494fb75-e57c-491f-a6e7-c2440c3a37e3,True,37.8723555,-122.2664467,University Ave at Oxford St,14,"['CREDITCARD', 'KEY']",http://app.fordgobike.com/Z6gL/SiFlGfIOTF?station_id=258,BK-C8,258,Berkeley,East Bay
232,23,False,False,d1e31ce1-f129-48e0-bfe9-ba2674ed2daa,True,37.866249,-122.2993708,Addison St at Fourth St,14,"['CREDITCARD', 'KEY']",http://app.fordgobike.com/Z6gL/SiFlGfIOTF?station_id=259,BK-D1,259,Berkeley,East Bay
233,15,False,False,0b81b2ae-d9bf-4b66-b5e0-687205d4bc12,True,37.869966707604036,-122.28653311729431,West St at University Ave,14,"['CREDITCARD', 'KEY']",http://app.fordgobike.com/Z6gL/SiFlGfIOTF?station_id=262,BK-D4,262,Berkeley,East Bay
234,23,False,False,40205ede-0c43-44ab-8c9c-0d8ecd9f854e,True,37.8628271,-122.2902305,Channing Way at San Pablo Ave,14,"['CREDITCARD', 'KEY']",http://app.fordgobike.com/Z6gL/SiFlGfIOTF?station_id=263,BK-E2,263,Berkeley,East Bay
235,15,False,False,3845994c-9953-44ce-b75b-43d4cb5216e8,True,37.8588682,-122.2912095,Ninth St at Parker St,14,"['CREDITCARD', 'KEY']",http://app.fordgobike.com/Z6gL/SiFlGfIOTF?station_id=265,BK-F2,265,Berkeley,East Bay
236,23,False,False,70cd5518-091f-4331-a80e-53df97db1a81,True,37.8624644,-122.2647911,Parker St at Fulton St,14,"['CREDITCARD', 'KEY']",http://app.fordgobike.com/Z6gL/SiFlGfIOTF?station_id=266,BK-F8,266,Berkeley,East Bay
237,19,False,False,a4ea165b-5dcf-4b41-ac2d-68718f98b147,True,37.8618037,-122.2535687,Derby St at College Ave,14,"['CREDITCARD', 'KEY']",http://app.fordgobike.com/Z6gL/SiFlGfIOTF?station_id=267,BK-F10,267,Berkeley,East Bay
238,15,False,False,429a3ffa-e0df-4497-b6e9-91e3ccb12c1c,True,37.85749021457153,-122.26157784461977,Ellsworth St at Russell St,14,"['CREDITCARD', 'KEY']",http://app.fordgobike.com/Z6gL/SiFlGfIOTF?station_id=268,BK-G8,268,Berkeley,East Bay
239,19,False,False,f1987d85-0da3-4a03-b947-8c6c72947f32,True,37.8623199,-122.258801,Telegraph Ave at Carleton St,14,"['CREDITCARD', 'KEY']",http://app.fordgobike.com/Z6gL/SiFlGfIOTF?station_id=269,BK-G9,269,Berkeley,East Bay
240,15,False,False,7cec0a12-76ab-4472-b38c-8e8ad02688a5,True,37.8534894,-122.2894154,Ninth St at Heinz Ave,14,"['CREDITCARD', 'KEY']",http://app.fordgobike.com/Z6gL/SiFlGfIOTF?station_id=270,BK-H3,270,Berkeley,East Bay
241,19,False,False,4a6b5ab4-b2d8-4657-b93f-a71bc7007283,True,37.85578332030199,-122.28312671184538,San Pablo Park,14,"['CREDITCARD', 'KEY']",http://app.fordgobike.com/Z6gL/SiFlGfIOTF?station_id=271,BK-G4,271,Berkeley,East Bay
242,19,False,False,4d1990b2-f487-43be-b436-018ad73ab0dd,True,37.855573661828785,-122.26356536149979,Fulton St at Ashby Ave,14,"['CREDITCARD', 'KEY']",http://app.fordgobike.com/Z6gL/SiFlGfIOTF?station_id=273,BK-H8,273,Berkeley,East Bay
243,20,False,False,ef04d469-63f4-464a-946f-056da6318051,True,37.8575672,-122.2675583,Oregon St at Adeline St,14,"['CREDITCARD', 'KEY']",http://app.fordgobike.com/Z6gL/SiFlGfIOTF?station_id=274,BK-G7,274,Berkeley,East Bay
244,15,False,False,0d48fc9e-6798-46f0-bbb6-67a168800e0b,True,37.3429973,-121.8888891,Julian St at 6th St,5,"['CREDITCARD', 'KEY']",http://app.fordgobike.com/Z6gL/SiFlGfIOTF?station_id=275,SJ-K11,275,San Jose,South Bay
245,23,False,False,2c7560e6-62c6-4403-8b97-8016471948b5,True,37.3322326,-121.9125165,Julian St at The Alameda,5,"['CREDITCARD', 'KEY']",http://app.fordgobike.com/Z6gL/SiFlGfIOTF?station_id=276,SJ-K5,276,San Jose,South Bay
246,19,False,False,27045384-791c-4519-8087-fce2f7c48a69,True,37.333612076384306,-121.90878152847289,W Julian St at N Morrison St,5,"['CREDITCARD', 'KEY']",http://app.fordgobike.com/Z6gL/SiFlGfIOTF?station_id=277,SJ-K6,277,San Jose,South Bay
247,23,False,False,d28bb0a7-8dc5-49be-86c7-9a3395eed019,True,37.3319323,-121.9048882,The Alameda at Bush St,5,"['CREDITCARD', 'KEY']",http://app.fordgobike.com/Z6gL/SiFlGfIOTF?station_id=278,SJ-L7-2,278,San Jose,South Bay
248,15,False,False,7ae6ad74-9212-4a2b-bb52-aba03cb533e2,True,37.3391456,-121.8841054,Santa Clara St at 7th St,5,"['CREDITCARD', 'KEY']",http://app.fordgobike.com/Z6gL/SiFlGfIOTF?station_id=279,SJ-M11-1,279,San Jose,South Bay
249,23,False,False,ed707a89-a68d-4921-a4cb-16c268e45a5b,True,37.3371223728942,-121.88321471214294,San Fernando St at 7th St,5,"['CREDITCARD', 'KEY']",http://app.fordgobike.com/Z6gL/SiFlGfIOTF?station_id=280,SJ-M11-2,280,San Jose,South Bay
250,19,False,False,7dfd8e07-81a8-4734-bc70-5e47aadbfa5a,True,37.3383952,-121.8807965,9th St at San Fernando St,5,"['CREDITCARD', 'KEY']",http://app.fordgobike.com/Z6gL/SiFlGfIOTF?station_id=281,SJ-M11-3,281,San Jose,South Bay
251,19,False,False,7304d188-5de6-4a57-86e3-bb0b72481368,True,37.332426301252056,-121.89034938812256,Market St at Park St,5,"['CREDITCARD', 'KEY']",http://app.fordgobike.com/Z6gL/SiFlGfIOTF?station_id=282,SJ-M9-1,282,San Jose,South Bay
252,19,False,False,6bcc6da3-b25b-4fea-9c30-3eb88e282574,True,37.3302641,-121.8977018,Delmas Ave and San Fernando St,5,"['CREDITCARD', 'KEY']",http://app.fordgobike.com/Z6gL/SiFlGfIOTF?station_id=283,SJ-M8-2,283,San Jose,South Bay
253,19,False,False,8b4f5169-6d0c-4d43-aa31-d243c5aec7ec,True,37.78487208436062,-122.40087568759917,Yerba Buena Center for the Arts (Howard St at 3rd St),3,"['CREDITCARD', 'KEY']",http://app.fordgobike.com/Z6gL/SiFlGfIOTF?station_id=284,SF-H27-1,284,San Francisco,San Francisco
254,27,False,False,3c2ae472-6b36-42ce-be4d-f99208a7e8b0,True,37.78352083526095,-122.43115782737732,Webster St at O'Farrell St,3,"['CREDITCARD', 'KEY']",http://app.fordgobike.com/Z6gL/SiFlGfIOTF?station_id=285,SF-H20,285,San Francisco,San Francisco
255,19,False,False,dc464713-3263-40bd-a059-af2efd7a4b9a,True,37.3364659,-121.8766132,San Carlos St at 11th St,5,"['CREDITCARD', 'KEY']",http://app.fordgobike.com/Z6gL/SiFlGfIOTF?station_id=286,SJ-N12-1,286,San Jose,South Bay
256,19,False,False,8fccc336-6544-4c73-a096-282131267f78,True,37.32673,-121.8892731,Almaden Blvd at Balbach St,5,"['CREDITCARD', 'KEY']",http://app.fordgobike.com/Z6gL/SiFlGfIOTF?station_id=287,SJ-O9,287,San Jose,South Bay
257,27,False,False,0d730ac1-7ce6-45cf-aca6-b412ea46709d,True,37.3509643,-121.9020161,Mission St at 1st St,5,"['CREDITCARD', 'KEY']",http://app.fordgobike.com/Z6gL/SiFlGfIOTF?station_id=288,SJ-H10,288,San Jose,South Bay
258,23,False,False,8941eac9-fb07-4d76-b623-fae2af79139e,True,37.34999774243205,-121.89800977706909,N 3rd St at E Taylor St,5,"['CREDITCARD', 'KEY']",http://app.fordgobike.com/Z6gL/SiFlGfIOTF?station_id=289,SJ-I10,289,San Jose,South Bay
259,19,False,False,6c176d42-fea5-4df1-80eb-66a99cc73a21,True,37.347046709982386,-121.89832091331482,Jackson St at N 1st St,5,"['CREDITCARD', 'KEY']",http://app.fordgobike.com/Z6gL/SiFlGfIOTF?station_id=290,SJ-I9,290,San Jose,South Bay
260,15,False,False,3ebc4f3f-2941-47cd-a173-83f01a91bf57,True,37.3413348,-121.9031829,Autumn Parkway at Coleman Ave,5,"['CREDITCARD', 'KEY']",http://app.fordgobike.com/Z6gL/SiFlGfIOTF?station_id=291,SJ-J8,291,San Jose,South Bay
261,19,False,False,7d8f4de7-d726-4af2-95b5-33032136239a,True,37.3448821,-121.8969655,Empire St at 1st St,5,"['CREDITCARD', 'KEY']",http://app.fordgobike.com/Z6gL/SiFlGfIOTF?station_id=292,SJ-J9,292,San Jose,South Bay
262,27,False,False,d6c452d5-88d5-48e2-8028-d46134c2beb8,True,37.327581,-121.884559,Pierce Ave at Market St,5,"['CREDITCARD', 'KEY']",http://app.fordgobike.com/Z6gL/SiFlGfIOTF?station_id=294,SJ-O10,294,San Jose,South Bay
263,23,False,False,753e3e72-9498-4eef-a006-be1848cb36b3,True,37.3327938,-121.8759263,William St at 10th St,5,"['CREDITCARD', 'KEY']",http://app.fordgobike.com/Z6gL/SiFlGfIOTF?station_id=295,SJ-O11,295,San Jose,South Bay
264,27,False,False,bb54f5c8-5578-4167-9599-8e55154de4fd,True,37.3259984,-121.87712,5th St at Virginia St,5,"['CREDITCARD', 'KEY']",http://app.fordgobike.com/Z6gL/SiFlGfIOTF?station_id=296,SJ-P10,296,San Jose,South Bay
265,19,False,False,676591be-48bc-4653-995a-c4536e793135,True,37.3229796,-121.8879312,Locust St at Grant St,5,"['CREDITCARD', 'KEY']",http://app.fordgobike.com/Z6gL/SiFlGfIOTF?station_id=297,SJ-P8,297,San Jose,South Bay
266,23,False,False,0fd9a51c-67ac-4048-b531-bff644b82f47,True,37.322124625448566,-121.88109040260315,Oak St at 1st St,5,"['CREDITCARD', 'KEY']",http://app.fordgobike.com/Z6gL/SiFlGfIOTF?station_id=298,SJ-P9,298,San Jose,South Bay
267,15,False,False,46b4ef45-b06b-40eb-9fdf-9bc8ff104a4f,True,37.3236779,-121.8741186,Bestor Art Park,5,"['CREDITCARD', 'KEY']",http://app.fordgobike.com/Z6gL/SiFlGfIOTF?station_id=299,SJ-Q11,299,San Jose,South Bay
268,19,False,False,0cf3890c-4fde-49f7-9daa-7f2842695119,True,37.3172979,-121.884995,Palm St at Willow St,5,"['CREDITCARD', 'KEY']",http://app.fordgobike.com/Z6gL/SiFlGfIOTF?station_id=300,SJ-Q8,300,San Jose,South Bay
269,15,False,False,adda58ee-59a9-4586-8210-da874168a93b,True,37.3184498,-121.8831724,Willow St at Vine St,5,"['CREDITCARD', 'KEY']",http://app.fordgobike.com/Z6gL/SiFlGfIOTF?station_id=301,SJ-Q9,301,San Jose,South Bay
270,23,False,False,393ec80c-da84-4d7a-9452-e77f8de7caf2,True,37.352601,-121.905733,San Pedro St at Hedding St,5,"['CREDITCARD', 'KEY']",http://app.fordgobike.com/Z6gL/SiFlGfIOTF?station_id=303,SJ-H9,303,San Jose,South Bay
271,27,False,False,d6422284-e433-48c5-bf00-751c299189c8,True,37.3487586867448,-121.89479783177376,Jackson St at 5th St,5,"['CREDITCARD', 'KEY']",http://app.fordgobike.com/Z6gL/SiFlGfIOTF?station_id=304,SJ-J10,304,San Jose,South Bay
272,23,False,False,13d36dad-f238-426c-9525-ec73552fa0b0,True,37.342725,-121.895617,Ryland Park,5,"['CREDITCARD', 'KEY']",http://app.fordgobike.com/Z6gL/SiFlGfIOTF?station_id=305,SJ-K9,305,San Jose,South Bay
273,15,False,False,bae9be55-04d4-4641-9781-3d1c4b6950f1,True,37.339301,-121.889937,Saint James Park,5,"['CREDITCARD', 'KEY']",http://app.fordgobike.com/Z6gL/SiFlGfIOTF?station_id=306,SJ-L10,306,San Jose,South Bay
274,23,False,False,daac8a55-dd65-4a1e-b0b9-65ec5002c812,True,37.332692,-121.900084,SAP Center,5,"['CREDITCARD', 'KEY']",http://app.fordgobike.com/Z6gL/SiFlGfIOTF?station_id=307,SJ-L7-1,307,San Jose,South Bay
275,15,False,False,fa83f661-540e-4720-9323-824c6529b796,True,37.336802,-121.8940901,San Pedro Square,5,"['CREDITCARD', 'KEY']",http://app.fordgobike.com/Z6gL/SiFlGfIOTF?station_id=308,SJ-L9,308,San Jose,South Bay
276,23,False,False,5c17e1c8-5d21-4309-afcb-e69da27acf31,True,37.337391,-121.886995,San Jose City Hall,5,"['CREDITCARD', 'KEY']",http://app.fordgobike.com/Z6gL/SiFlGfIOTF?station_id=309,SJ-M10-1,309,San Jose,South Bay
277,23,False,False,c52ca98a-70c6-42da-9867-4f35060b5d2e,True,37.335885,-121.88566,San Fernando St at 4th St,5,"['CREDITCARD', 'KEY']",http://app.fordgobike.com/Z6gL/SiFlGfIOTF?station_id=310,SJ-M10-2,310,San Jose,South Bay
278,19,False,False,891b961d-b674-49be-9579-71f5feb4598d,True,37.333798,-121.886943,Paseo De San Antonio at 2nd St,5,"['CREDITCARD', 'KEY']",http://app.fordgobike.com/Z6gL/SiFlGfIOTF?station_id=311,SJ-M10-3,311,San Jose,South Bay
279,35,False,False,dc2f7685-c3e3-4536-b78b-740479cbb207,True,37.329732,-121.901782,San Jose Diridon Station,5,"['CREDITCARD', 'KEY']",http://app.fordgobike.com/Z6gL/SiFlGfIOTF?station_id=312,SJ-M7-1,312,San Jose,South Bay
280,23,False,False,32974dc6-2aea-45d3-ae66-06f02f45ecaa,True,37.331415,-121.8932,Almaden Blvd at San Fernando St,5,"['CREDITCARD', 'KEY']",http://app.fordgobike.com/Z6gL/SiFlGfIOTF?station_id=313,SJ-M8,313,San Jose,South Bay
281,11,False,False,67b039eb-ea61-46c0-8da5-1f56de4ad9ca,True,37.333988,-121.894902,Santa Clara St at Almaden Blvd,5,"['CREDITCARD', 'KEY']",http://app.fordgobike.com/Z6gL/SiFlGfIOTF?station_id=314,SJ-M9-2,314,San Jose,South Bay
282,15,False,False,bde0daf3-435d-4e6a-a477-ec9a4b4c17f7,True,37.834174,-122.272968,Market St at 45th St,12,"['CREDITCARD', 'KEY']",http://app.fordgobike.com/Z6gL/SiFlGfIOTF?station_id=315,OK-E2,315,Oakland,East Bay
283,19,False,False,c11e189e-080a-40ba-a0a4-98920af4806b,True,37.33116799422201,-121.88693761825562,1st St at San Carlos St,5,"['CREDITCARD', 'KEY']",http://app.fordgobike.com/Z6gL/SiFlGfIOTF?station_id=316,SJ-N10-2,316,San Jose,South Bay
284,19,False,False,53d1c097-50e3-494d-bddc-bdab49c7c39b,True,37.333955,-121.877349,San Salvador St at 9th St,5,"['CREDITCARD', 'KEY']",http://app.fordgobike.com/Z6gL/SiFlGfIOTF?station_id=317,SJ-N11,317,San Jose,South Bay
285,15,False,False,caadcda3-bbdb-4cc5-825a-7e3d79ea921e,True,37.330698,-121.888979,San Carlos St at Market St,5,"['CREDITCARD', 'KEY']",http://app.fordgobike.com/Z6gL/SiFlGfIOTF?station_id=318,SJ-N9,318,San Jose,South Bay
286,31,False,False,13f59664-7cdd-451c-b4bb-1e8d660164c8,True,37.78014570345598,-122.40307085237873,5th St at Folsom,3,"['CREDITCARD', 'KEY']",http://app.fordgobike.com/Z6gL/SiFlGfIOTF?station_id=321,SF-I27,321,San Francisco,San Francisco
287,19,False,False,07303af0-cf6e-46f2-bf9c-9ebb61f21adc,True,37.79801364395978,-122.40595042705534,Broadway at Kearny,3,"['CREDITCARD', 'KEY']",http://app.fordgobike.com/Z6gL/SiFlGfIOTF?station_id=323,SF-C26,323,San Francisco,San Francisco
288,27,False,False,6d0651c2-022b-4e4d-add0-a1bda32e6725,True,37.788299978150825,-122.40853071212767,Union Square (Powell St at Post St),3,"['CREDITCARD', 'KEY']",http://app.fordgobike.com/Z6gL/SiFlGfIOTF?station_id=324,SF-F26,324,San Francisco,San Francisco
289,19,False,False,bd217291-f4ad-4e1d-8c13-e27d39a35fef,True,37.33203868095132,-121.8817663192749,5th St at San Salvador St,5,"['CREDITCARD', 'KEY']",http://app.fordgobike.com/Z6gL/SiFlGfIOTF?station_id=327,SJ-N10-3,327,San Jose,South Bay
290,27,False,False,940751e9-8763-4929-9f03-080b95e35a52,True,37.76328094058097,-122.4073773622513,Potrero Ave and Mariposa St,3,"['CREDITCARD', 'KEY']",http://app.fordgobike.com/Z6gL/SiFlGfIOTF?station_id=336,SF-N26,336,San Francisco,San Francisco
291,27,False,False,3e04af83-e5cb-4472-95b5-1fc9caefa6fb,True,37.80696976095594,-122.26658821105957,Webster St at 19th St,12,"['CREDITCARD', 'KEY']",http://app.fordgobike.com/Z6gL/SiFlGfIOTF?station_id=337,OK-K6-,337,Oakland,East Bay
292,23,False,False,10c593a0-39c8-45ec-bbf6-fd7fbdf30cb5,True,37.80318908113163,-122.27057933807373,13th St at Franklin St,12,"['CREDITCARD', 'KEY']",http://app.fordgobike.com/Z6gL/SiFlGfIOTF?station_id=338,OK-L6-,338,Oakland,East Bay
293,27,False,False,2dbb5c93-f749-47b9-bcad-ce6c3b26ba35,True,37.80000163118878,-122.26643800735472,Jackson St at 11th St,12,"['CREDITCARD', 'KEY']",http://app.fordgobike.com/Z6gL/SiFlGfIOTF?station_id=339,OK-L7,339,Oakland,East Bay
294,15,False,False,fd89514c-f878-4cd5-8113-8e5beead44de,True,37.849735,-122.270582,Harmon St at Adeline St,14,"['CREDITCARD', 'KEY']",http://app.fordgobike.com/Z6gL/SiFlGfIOTF?station_id=340,BK-I6,340,Berkeley,East Bay
295,11,False,False,d12ba265-5bfe-4a00-a19a-a7299822bd65,True,37.33618830029063,-121.88927650451659,Fountain Alley at S 2nd St,5,"['CREDITCARD', 'KEY']",http://app.fordgobike.com/Z6gL/SiFlGfIOTF?station_id=341,SJ-M10-4,341,San Jose,South Bay
296,27,False,False,8013d0b6-dd3a-4f9f-9fee-a1e6e21aef90,True,37.783171989315306,-122.39357203245163,Bryant St at 2nd St,3,"['CREDITCARD', 'KEY']",http://app.fordgobike.com/Z6gL/SiFlGfIOTF?station_id=343,SF I29-1,343,San Francisco,San Francisco
297,27,False,False,e66227f7-bd49-46be-b5ee-ce6518ac9dd4,True,37.766482696439496,-122.39827930927277,Hubbell St at 16th St,3,"['CREDITCARD', 'KEY']",http://app.fordgobike.com/Z6gL/SiFlGfIOTF?station_id=345,SF-M28,345,San Francisco,San Francisco
298,28,False,False,90e4028e-afee-480f-b327-4e7cc40f6796,True,37.78100971717512,-122.40566611289978,Howard St at Mary St,3,"['CREDITCARD', 'KEY']",http://app.fordgobike.com/Z6gL/SiFlGfIOTF?station_id=349,SF-I26-,349,San Francisco,San Francisco
299,31,False,False,49cb42b6-8a2e-4e19-a4b5-0f70c5b45d39,True,37.771431362921085,-122.40578681230545,8th St at Brannan St,3,"['CREDITCARD', 'KEY']",http://app.fordgobike.com/Z6gL/SiFlGfIOTF?station_id=350,SF-K26,350,San Francisco,San Francisco
300,19,False,False,72266876-876c-41a9-a1d7-c4b4306b42c3,True,37.86906047545393,-122.29339957237242,10th St at University Ave,14,"['CREDITCARD', 'KEY']",http://app.fordgobike.com/Z6gL/SiFlGfIOTF?station_id=351,BK-D2,351,Berkeley,East Bay
301,23,False,False,c0bc3212-1e26-438b-9ebd-ea1d1c8e92ef,True,37.72694296622841,-122.40659952163695,Goettingen St at Bacon St,3,"['CREDITCARD', 'KEY']",http://app.fordgobike.com/Z6gL/SiFlGfIOTF?station_id=352,SF-Y25,352,San Francisco,San Francisco
302,31,False,False,194a64ab-b6b4-4724-bd21-01b4e9cbe629,True,37.755367132158526,-122.38879501819609,23rd St at Tennessee St,3,"['CREDITCARD', 'KEY']",http://app.fordgobike.com/Z6gL/SiFlGfIOTF?station_id=355,SF-Q30,355,San Francisco,San Francisco
303,19,False,False,dd3ef1c7-d691-4b1f-a2d2-a9b04363ad49,True,37.769188178104585,-122.42228507995605,Valencia St at Clinton Park,3,"['CREDITCARD', 'KEY']",http://app.fordgobike.com/Z6gL/SiFlGfIOTF?station_id=356,SF-L22,356,San Francisco,San Francisco
304,23,False,False,ccf416f8-ccc0-4f82-a659-e5d7851d2bcb,True,37.34113203547954,-121.89284384250641,2nd St at Julian St,5,"['CREDITCARD', 'KEY']",http://app.fordgobike.com/Z6gL/SiFlGfIOTF?station_id=357,SJ-K10,357,San Jose,South Bay
305,19,False,False,c4c4484d-0e18-44d4-a992-c5d0550ba94d,True,37.729278651730276,-122.39289611577988,Williams Ave at 3rd St,3,"['CREDITCARD', 'KEY']",http://app.fordgobike.com/Z6gL/SiFlGfIOTF?station_id=358,SF-Y29,358,San Francisco,San Francisco
306,15,False,False,e6e22821-4578-4bae-94d8-b1dabf0cd0cd,True,37.73016750815088,-122.39896327257156,Williams Ave at Apollo St,3,"['CREDITCARD', 'KEY']",http://app.fordgobike.com/Z6gL/SiFlGfIOTF?station_id=359,SF-Y27,359,San Francisco,San Francisco
307,19,False,False,9477b039-8d61-4917-b03a-43efb7d55c90,True,37.73857187126725,-122.38961778581141,Newhall St at 3rd St,3,"['CREDITCARD', 'KEY']",http://app.fordgobike.com/Z6gL/SiFlGfIOTF?station_id=360,SF-V29,360,San Francisco,San Francisco
308,19,False,False,20a07c3b-b37e-41e5-bbeb-632e3aae4b46,True,37.739853017984125,-122.38565549254417,Mendell St at Fairfax Ave,3,"['CREDITCARD', 'KEY']",http://app.fordgobike.com/Z6gL/SiFlGfIOTF?station_id=361,SF-V30,361,San Francisco,San Francisco
309,19,False,False,dfaaaa16-03ba-40b5-8360-6ebfc97ea541,True,37.7317266935217,-122.3900556564331,Lane St at Revere Ave,3,"['CREDITCARD', 'KEY']",http://app.fordgobike.com/Z6gL/SiFlGfIOTF?station_id=362,SF-X30,362,San Francisco,San Francisco
310,35,False,False,21883e7a-ea31-4cfc-843a-ca8263b39fda,True,37.78749210438603,-122.3982846736908,Salesforce Transit Center (Natoma St at 2nd St),3,"['CREDITCARD', 'KEY']",http://app.fordgobike.com/Z6gL/SiFlGfIOTF?station_id=363,SF-G29-1,363,San Francisco,San Francisco
311,31,False,False,d88b1cad-d8e4-4eff-9897-9dabbc43bcbb,True,37.7719996,-122.3899698,China Basin St at 3rd St,3,"['CREDITCARD', 'KEY']",http://app.fordgobike.com/Z6gL/SiFlGfIOTF?station_id=364,SF-K30-2,364,San Francisco,San Francisco
312,23,False,False,9d47758e-44c7-4a16-a66a-efe7f942e7d1,True,37.78045005996349,-122.43194639682768,Turk St at Fillmore St,3,"['CREDITCARD', 'KEY']",http://app.fordgobike.com/Z6gL/SiFlGfIOTF?station_id=365,SF-I20,365,San Francisco,San Francisco
313,27,False,False,3612155a-0fb2-4e66-8bab-f81979bfe54a,True,37.78543382786823,-122.41962164640428,Myrtle St at Polk St,3,"['CREDITCARD', 'KEY']",http://app.fordgobike.com/Z6gL/SiFlGfIOTF?station_id=368,SF-G23,368,San Francisco,San Francisco
314,27,False,False,88fe4d18-7a30-4ffa-8e6d-9c8aa708e30f,True,37.78734902316596,-122.41665109992026,Hyde St at Post St,3,"['CREDITCARD', 'KEY']",http://app.fordgobike.com/Z6gL/SiFlGfIOTF?station_id=369,SF-G24,369,San Francisco,San Francisco
315,19,False,False,11547c9b-2e36-4fc5-9e81-9d5817ae35dc,True,37.7873267660624,-122.41327822208405,Jones St at Post St,3,"['CREDITCARD', 'KEY']",http://app.fordgobike.com/Z6gL/SiFlGfIOTF?station_id=370,SF-G25,370,San Francisco,San Francisco
316,19,False,False,7b2083d3-b1bb-4ef3-ba53-bebc831bd0a4,True,37.80274615250053,-122.41357862949373,Lombard St at Columbus Ave,3,"['CREDITCARD', 'KEY']",http://app.fordgobike.com/Z6gL/SiFlGfIOTF?station_id=371,SF-B25,371,San Francisco,San Francisco
317,19,False,False,8d63ada7-a461-44c8-999d-4a8a45117e90,True,37.804036784023594,-122.26240932941435,Madison St at 17th St,12,"['CREDITCARD', 'KEY']",http://app.fordgobike.com/Z6gL/SiFlGfIOTF?station_id=372,OK-K7,372,Oakland,East Bay
318,23,False,False,6e7a5099-b2ba-40d4-9a24-29e0ae7dfd4b,True,37.75179164525661,-122.40521550178528,Potrero del Sol Park (25th St at Utah St),3,"['CREDITCARD', 'KEY']",http://app.fordgobike.com/Z6gL/SiFlGfIOTF?station_id=373,SF-R26,373,San Francisco,San Francisco
319,31,False,False,e98999ee-5c3d-48b8-8735-baf6518ad915,True,37.77483629413345,-122.44654566049576,Grove St at Masonic Ave,3,"['CREDITCARD', 'KEY']",http://app.fordgobike.com/Z6gL/SiFlGfIOTF?station_id=375,SF-J16,375,San Francisco,San Francisco
320,23,False,False,fa0488df-ff17-42f1-9250-5a2bef70072b,True,37.76045755543481,-122.38753974437712,Illinois St at 20th St,3,"['CREDITCARD', 'KEY']",http://app.fordgobike.com/Z6gL/SiFlGfIOTF?station_id=376,SF-O30-2,376,San Francisco,San Francisco
321,19,False,False,180e4d99-3717-4b99-8200-671af652921f,True,37.7719511,-122.4537048,Fell St at Stanyan St,3,"['CREDITCARD', 'KEY']",http://app.fordgobike.com/Z6gL/SiFlGfIOTF?station_id=377,SF-K15-,377,San Francisco,San Francisco
322,31,False,False,bd05ae96-7adc-422d-84ea-697cd3b73afc,True,37.3477119817597,-121.89055323600769,7th St at Empire St,5,"['CREDITCARD', 'KEY']",http://app.fordgobike.com/Z6gL/SiFlGfIOTF?station_id=378,SJ-J11,378,San Jose,South Bay
323,23,False,False,175541bb-0ac6-42ba-bb50-071317d1237b,True,37.779046658472055,-122.44729131460188,Masonic Ave at Turk St,3,"['CREDITCARD', 'KEY']",http://app.fordgobike.com/Z6gL/SiFlGfIOTF?station_id=380,SF-I16,380,San Francisco,San Francisco
324,27,False,False,2c3d0e1d-f278-48df-b887-4723d4bcbefe,True,37.75823842417928,-122.4260938167572,20th St at Dolores St,3,"['CREDITCARD', 'KEY']",http://app.fordgobike.com/Z6gL/SiFlGfIOTF?station_id=381,SF-P21,381,San Francisco,San Francisco
325,31,False,False,63758c7b-dfd9-4548-92a2-28fe8efb2faa,True,37.7807871267462,-122.4219337105751,Golden Gate Ave at Franklin St,3,"['CREDITCARD', 'KEY']",http://app.fordgobike.com/Z6gL/SiFlGfIOTF?station_id=383,SF-I22,383,San Francisco,San Francisco
326,27,False,False,ed438146-1615-45c6-bf54-07e2de0adcf1,True,37.79416044174933,-122.42156758904456,Jackson St at Polk St,3,"['CREDITCARD', 'KEY']",http://app.fordgobike.com/Z6gL/SiFlGfIOTF?station_id=384,SF-E23,384,San Francisco,San Francisco
327,14,False,False,6b38a901-f4ae-4aef-b958-3b6efe69e9d6,True,37.8505777,-122.2781754,Woolsey St at Sacramento St,14,"['CREDITCARD', 'KEY']",http://app.fordgobike.com/Z6gL/SiFlGfIOTF?station_id=385,BK-I5,385,Berkeley,East Bay
328,16,False,False,47fcca45-c6c5-4665-9f34-8852ca3c3ae8,True,37.752104984423575,-122.41972357034683,24th St at Bartlett St,3,"['CREDITCARD', 'KEY']",http://app.fordgobike.com/Z6gL/SiFlGfIOTF?station_id=386,SF-Q23-3,386,San Francisco,San Francisco
329,19,False,False,1bd76a29-5890-4194-993c-666c09af9993,True,37.73981271734901,-122.42552250623703,Randall St at Chenery St,3,"['CREDITCARD', 'KEY']",http://app.fordgobike.com/Z6gL/SiFlGfIOTF?station_id=387,SF-U21,387,San Francisco,San Francisco
330,15,False,False,534d8e3d-3814-48c9-b25e-1d2b8205fcd9,True,37.35288682729121,-121.88604980707169,Backesto Park (Jackson St at 13th St),5,"['CREDITCARD', 'KEY']",http://app.fordgobike.com/Z6gL/SiFlGfIOTF?station_id=388,SJ-J12-2,388,San Jose,South Bay
331,23,False,False,d87d0852-6abb-428b-86dd-d470c64c8ff7,True,37.35306166133104,-121.89193725585936,Taylor St at 9th St,5,"['CREDITCARD', 'KEY']",http://app.fordgobike.com/Z6gL/SiFlGfIOTF?station_id=389,SJ-I11,389,San Jose,South Bay
332,15,False,False,6e52cb4a-6cd5-4d29-ad74-68e3b6aa854f,True,37.7504343570623,-122.39044725894927,Indiana St at Cesar Chavez St,3,"['CREDITCARD', 'KEY']",http://app.fordgobike.com/Z6gL/SiFlGfIOTF?station_id=390,SF-S29,390,San Francisco,San Francisco
333,19,False,False,3794a34d-764a-4af1-80db-1b0e0ce13fed,True,37.355029582252904,-121.90443634986876,1st St at Younger Ave,5,"['CREDITCARD', 'KEY']",http://app.fordgobike.com/Z6gL/SiFlGfIOTF?station_id=391,SJ-G10,391,San Jose,South Bay
334,15,False,False,cfda2dee-2f6c-400d-a1a7-ba1b2bdc6aee,True,37.364060462258806,-121.9117319583893,Sonora Ave at 1st St,5,"['CREDITCARD', 'KEY']",http://app.fordgobike.com/Z6gL/SiFlGfIOTF?station_id=392,SJ-E9,392,San Jose,South Bay
335,23,False,False,a96032c0-9ff2-4fbe-8f03-6b3f9816947d,True,37.33863648417357,-121.92099094390868,Emory St at The Alameda,5,"['CREDITCARD', 'KEY']",http://app.fordgobike.com/Z6gL/SiFlGfIOTF?station_id=393,SJ-I5,393,San Jose,South Bay
336,23,False,False,7c086aa7-c33f-47e5-ace9-74c40807c409,True,37.349426308788004,-121.8876188993454,10th St at Empire St,5,"['CREDITCARD', 'KEY']",http://app.fordgobike.com/Z6gL/SiFlGfIOTF?station_id=394,SJ-J12-1,394,San Jose,South Bay
337,27,False,False,ab8cc22e-0f34-4476-bf81-293cbbb2e69c,True,37.360854155253826,-121.90683424472809,Kerley Dr at Rosemary St,5,"['CREDITCARD', 'KEY']",http://app.fordgobike.com/Z6gL/SiFlGfIOTF?station_id=395,SJ-F10,395,San Jose,South Bay
338,23,False,False,e81efb0f-faee-43dd-b8e0-1e1f0cad61f1,True,37.36767805240811,-121.9187942147255,Metro Dr at Technology Dr,5,"['CREDITCARD', 'KEY']",http://app.fordgobike.com/Z6gL/SiFlGfIOTF?station_id=396,SJ-C9,396,San Jose,South Bay
339,23,False,False,b8cadddb-5ca8-43ec-98f3-2276e036950b,True,37.36186680025918,-121.90931528806688,Gish Rd at 1st St,5,"['CREDITCARD', 'KEY']",http://app.fordgobike.com/Z6gL/SiFlGfIOTF?station_id=397,SJ-E10,397,San Jose,South Bay
340,19,False,False,36d93f40-149d-4b0d-ab4c-ea4aad093937,True,37.796470691622936,-122.4168576300144,Leavenworth St at Broadway,3,"['CREDITCARD', 'KEY']",http://app.fordgobike.com/Z6gL/SiFlGfIOTF?station_id=398,SF-D24,398,San Francisco,San Francisco
341,27,False,False,43974bf5-147b-4348-aed6-eb29626cb1cf,True,37.802635949749025,-122.4362888932228,Bay St at Fillmore St,3,"['CREDITCARD', 'KEY']",http://app.fordgobike.com/Z6gL/SiFlGfIOTF?station_id=399,SF-B19,399,San Francisco,San Francisco
342,28,False,False,94b81aae-caf3-4ad6-867f-353057ad98d5,True,37.80427201985148,-122.43353694677353,Buchanan St at North Point St,3,"['CREDITCARD', 'KEY']",http://app.fordgobike.com/Z6gL/SiFlGfIOTF?station_id=400,SF-A20,400,San Francisco,San Francisco
343,19,False,False,938f4dc0-e393-47e8-9449-3a82b2445662,True,37.36522655191025,-121.9168147444725,Skyport Dr at Technology Dr,5,"['CREDITCARD', 'KEY']",http://app.fordgobike.com/Z6gL/SiFlGfIOTF?station_id=401,SJ-D9,401,San Jose,South Bay
344,23,False,False,c0f36b61-82e5-4f63-9a28-1fa11f0149c9,True,37.356834352780886,-121.89593575894831,Raymond Bernal Jr Memorial Park (8th St at Hedding St),5,"['CREDITCARD', 'KEY']",http://app.fordgobike.com/Z6gL/SiFlGfIOTF?station_id=402,SJ-H11,402,San Jose,South Bay
345,23,False,False,6200707a-ffec-4dde-b142-4df69780264f,True,37.355692651246365,-121.89225107431412,10th St at Mission St,5,"['CREDITCARD', 'KEY']",http://app.fordgobike.com/Z6gL/SiFlGfIOTF?station_id=403,SJ-H12,403,San Jose,South Bay
346,19,False,False,c53990d7-f965-40f4-b305-3435e1c95a71,True,37.345758795303155,-121.87067806720735,21st St at Santa Clara St,5,"['CREDITCARD', 'KEY']",http://app.fordgobike.com/Z6gL/SiFlGfIOTF?station_id=404,SJ-M14,404,San Jose,South Bay
347,27,False,False,e5b1f228-5347-47fc-a079-c1df0e8668f1,True,37.32345133870681,-121.90597593784332,Sunol St at San Carlos St,5,"['CREDITCARD', 'KEY']",http://app.fordgobike.com/Z6gL/SiFlGfIOTF?station_id=405,SJ-N5,405,San Jose,South Bay
348,27,False,False,2c00d99d-7518-4ecd-ab53-63e7a34034f6,True,37.316736478493425,-121.91000461578369,Parkmoor Ave at Race St,5,"['CREDITCARD', 'KEY']",http://app.fordgobike.com/Z6gL/SiFlGfIOTF?station_id=406,SJ-O4,406,San Jose,South Bay
349,15,False,False,b09fd293-4364-4ce6-9341-0ced58486c5a,True,37.31515792998312,-121.89783275127412,Bird Ave at Coe Ave,5,"['CREDITCARD', 'KEY']",http://app.fordgobike.com/Z6gL/SiFlGfIOTF?station_id=407,SJ-P6,407,San Jose,South Bay
350,23,False,False,e5741f79-1c88-4f19-8f34-59b4ab198375,True,37.83954308266563,-122.2987177222967,2100 Powell St,13,"['CREDITCARD', 'KEY']",http://app.fordgobike.com/Z6gL/SiFlGfIOTF?station_id=409,EM-B0-2,409,Emeryville,East Bay
351,19,False,False,ba6302c6-3960-48c0-99c7-27936e2d1275,True,37.750200010252144,-122.38656744360925,Illinois St at Cesar Chavez St,3,"['CREDITCARD', 'KEY']",http://app.fordgobike.com/Z6gL/SiFlGfIOTF?station_id=410,SF-S30,410,San Francisco,San Francisco
352,27,False,False,e2b8752f-c441-4d30-8bcf-f78b378c7c2d,True,37.774017937683546,-122.4238085746765,Octavia Blvd at Page St,3,"['CREDITCARD', 'KEY']",http://app.fordgobike.com/Z6gL/SiFlGfIOTF?station_id=411,SF-J22-1,411,San Francisco,San Francisco
353,40,False,False,e0ae39c6-90d9-4302-8da9-582cdaaa2a60,True,37.7328128005294,-122.43414044380188,Glen Park BART Station,3,"['CREDITCARD', 'KEY']",http://app.fordgobike.com/Z6gL/SiFlGfIOTF?station_id=412,SF-W19,412,San Francisco,San Francisco
354,19,False,False,90f3a6f3-b34b-48fa-b162-d7fdffd9637f,True,37.720554988720636,-122.4477231502533,Balboa Park BART Station,3,"['CREDITCARD', 'KEY']",http://app.fordgobike.com/Z6gL/SiFlGfIOTF?station_id=413,SF-AA15,413,San Francisco,San Francisco
355,19,False,False,ea2a009b-6a83-4b81-ba35-c175c492f4f4,True,37.31975695999228,-121.89299941062927,Delmas Ave at Virginia St,5,"['CREDITCARD', 'KEY']",http://app.fordgobike.com/Z6gL/SiFlGfIOTF?station_id=415,SJ-P7,415,San Jose,South Bay
356,23,False,False,46f36a3a-f550-4fe0-bfe8-b94fddaf95d8,True,37.321181834267314,-121.9030898809433,Auzerais Ave at Los Gatos Creek Trail,5,"['CREDITCARD', 'KEY']",http://app.fordgobike.com/Z6gL/SiFlGfIOTF?station_id=416,SJ-N6,416,San Jose,South Bay
357,23,False,False,45d77294-6643-4ba4-bd8b-2e8c27430dfe,True,37.32601084794081,-121.91232740879057,Park Ave at Race St,5,"['CREDITCARD', 'KEY']",http://app.fordgobike.com/Z6gL/SiFlGfIOTF?station_id=417,SJ-M5,417,San Jose,South Bay
358,19,False,False,30429aed-9a47-4fd9-87fa-0db835aa8265,True,37.34398467798214,-121.87438488006593,17th St at Santa Clara St,5,"['CREDITCARD', 'KEY']",http://app.fordgobike.com/Z6gL/SiFlGfIOTF?station_id=418,SJ-L13,418,San Jose,South Bay
359,21,False,False,618f7cf2-3478-4607-9081-71f3a314f56f,True,37.78819690783405,-122.42037266492844,Fern St at Polk St,3,"['CREDITCARD', 'KEY']",http://app.fordgobike.com/Z6gL/SiFlGfIOTF?station_id=419,SF-F23,419,San Francisco,San Francisco
360,19,False,False,7d59176c-49dd-4b07-a5ab-bcc109974db3,True,37.3600013909666,-121.87877833843231,23rd St at Taylor St,5,"['CREDITCARD', 'KEY']",http://app.fordgobike.com/Z6gL/SiFlGfIOTF?station_id=421,SJ-I14,421,San Jose,South Bay
361,23,False,False,d75591d7-080d-46cb-8ada-0fbe6af676fc,True,37.33677476275722,-121.90914899110793,Stockton Ave at Lenzen Ave,5,"['CREDITCARD', 'KEY']",http://app.fordgobike.com/Z6gL/SiFlGfIOTF?station_id=422,SJ-J6,422,San Jose,South Bay
362,31,False,False,94c877d2-f064-4373-b372-3f8997a07f30,True,37.32031582108647,-121.87009871006012,South San Jose State (7th St at Humboldt St),5,"['CREDITCARD', 'KEY']",http://app.fordgobike.com/Z6gL/SiFlGfIOTF?station_id=423,SJ-R11,423,San Jose,South Bay
363,19,False,False,664a552b-479c-40c3-b702-6b0b63751ce3,True,37.799207926286,-122.43412166833876,Greenwich St at Webster St,3,"['CREDITCARD', 'KEY']",http://app.fordgobike.com/Z6gL/SiFlGfIOTF?station_id=424,SF-C20,424,San Francisco,San Francisco
364,19,False,False,4e704be5-b76d-44a5-8d05-a9ba3e5ae20e,True,37.31128394611736,-121.89632534980774,Bird Ave at Willow St,5,"['CREDITCARD', 'KEY']",http://app.fordgobike.com/Z6gL/SiFlGfIOTF?station_id=425,SJ-Q5,425,San Jose,South Bay
365,19,False,False,68c89d1f-407a-4550-a2b7-ecf0ad7ee422,True,37.3233446905968,-121.91349685192107,San Carlos St at Meridian Ave,5,"['CREDITCARD', 'KEY']",http://app.fordgobike.com/Z6gL/SiFlGfIOTF?station_id=426,SJ-M4,426,San Jose,South Bay
366,27,False,False,14750571-71a2-4c2f-8a6a-8f344866eebe,True,37.32096853145443,-121.90829604864119,Auzerais Ave at Lincoln Ave,5,"['CREDITCARD', 'KEY']",http://app.fordgobike.com/Z6gL/SiFlGfIOTF?station_id=427,SJ-N5-2,427,San Jose,South Bay
367,27,False,False,f503bee7-b169-43c4-a1ef-5b3ddd859a7a,True,37.728281592452824,-122.4506950378418,Judson Ave at Gennessee St,3,"['CREDITCARD', 'KEY']",http://app.fordgobike.com/Z6gL/SiFlGfIOTF?station_id=431,SF-X14,431,San Francisco,San Francisco
368,19,False,False,a6c2bd25-bdaf-4548-baeb-e203cfa52b3e,True,37.73309280990925,-122.39097297191618,Quesada Ave at 3rd St,3,"['CREDITCARD', 'KEY']",http://app.fordgobike.com/Z6gL/SiFlGfIOTF?station_id=432,SF-X29,432,San Francisco,San Francisco
369,15,False,False,d09b983e-bbce-4501-9e3c-7dc0fe605ff3,True,37.7316566899845,-122.45112150907515,Gennessee St at Monterey Blvd,3,"['CREDITCARD', 'KEY']",http://app.fordgobike.com/Z6gL/SiFlGfIOTF?station_id=433,SF-W14,433,San Francisco,San Francisco
370,23,False,False,f24186f7-5c85-4be8-8328-55de576a88db,True,37.725375194135154,-122.39401996135712,Carroll Ave at 3rd St,3,"['CREDITCARD', 'KEY']",http://app.fordgobike.com/Z6gL/SiFlGfIOTF?station_id=434,SF-Z28,434,San Francisco,San Francisco
371,19,False,False,9d4c484b-5e48-4115-8f87-e3f19b08c9d4,True,37.72939320661727,-122.38653659820555,Jennings St at Revere Ave,3,"['CREDITCARD', 'KEY']",http://app.fordgobike.com/Z6gL/SiFlGfIOTF?station_id=435,SF-Y30,435,San Francisco,San Francisco
372,23,False,False,ba3699d9-448e-4246-aa88-b7543383af4e,True,37.73629587217104,-122.38996982574461,McKinnon Ave at 3rd St,3,"['CREDITCARD', 'KEY']",http://app.fordgobike.com/Z6gL/SiFlGfIOTF?station_id=436,SF-W29,436,San Francisco,San Francisco
373,15,False,False,6c4a9d85-6ef7-43fc-82a5-172d1a045539,True,37.740177543351436,-122.38373637199402,Evans Ave at Mendell St,3,"['CREDITCARD', 'KEY']",http://app.fordgobike.com/Z6gL/SiFlGfIOTF?station_id=437,SF-V31,437,San Francisco,San Francisco
374,19,False,False,9d5eb122-9e8b-49db-bf9c-a73c9e88c8d2,True,37.7368516211844,-122.3942506313324,Oakdale Ave at Phelps St,3,"['CREDITCARD', 'KEY']",http://app.fordgobike.com/Z6gL/SiFlGfIOTF?station_id=438,SF-V28,438,San Francisco,San Francisco
375,31,False,False,7dd926da-25ee-48fd-9de7-ad59a83f94a8,True,37.78437181107635,-122.4394780397415,Post St at Divisadero St,3,"['CREDITCARD', 'KEY']",http://app.fordgobike.com/Z6gL/SiFlGfIOTF?station_id=439,SF-G18,439,San Francisco,San Francisco
376,23,False,False,dd34aaa2-dd91-4d83-9f92-e8a2f1cc2f93,True,37.765910207223854,-122.44925737380981,Carl St at Cole St,3,"['CREDITCARD', 'KEY']",http://app.fordgobike.com/Z6gL/SiFlGfIOTF?station_id=440,SF-M15,440,San Francisco,San Francisco
377,23,False,False,f518d262-a592-4b3d-b026-b9215bea13d0,True,37.802288386147964,-122.4245086312294,Chestnut St at Van Ness Ave,3,"['CREDITCARD', 'KEY']",http://app.fordgobike.com/Z6gL/SiFlGfIOTF?station_id=441,SF-B22,441,San Francisco,San Francisco
378,0,False,False,6994e1e6-bb3c-4309-8207-52e6004a7302,False,37.3655356585599,-121.86796635389327,Newbury Park Dr at King Rd,,"['CREDITCARD', 'KEY']",http://app.fordgobike.com/Z6gL/SiFlGfIOTF?station_id=442,SJ-H17,442,San Jose,South Bay
379,23,False,False,a7677436-088f-4c4f-82b9-e769e479ddf1,True,37.32086614588923,-121.87627851963045,3rd St at Keyes St,5,"['CREDITCARD', 'KEY']",http://app.fordgobike.com/Z6gL/SiFlGfIOTF?station_id=443,SJ-Q10,443,San Jose,South Bay
380,0,False,False,3c12fd1d-c7fc-4570-8fa3-1449c096b818,False,37.37111641335901,-121.88133180141449,Mercado Way at Sierra Rd,,"['CREDITCARD', 'KEY']",http://app.fordgobike.com/Z6gL/SiFlGfIOTF?station_id=444,SJ-G15,444,San Jose,South Bay
381,21,False,False,2a229da1-a8bc-485a-982b-df0c9de6d11e,True,37.78655306258097,-122.39960700273514,Natoma St at New Montgomery St,3,"['CREDITCARD', 'KEY']",http://app.fordgobike.com/Z6gL/SiFlGfIOTF?station_id=445,SF-G28-2,445,San Francisco,San Francisco
382,15,False,False,8d2b8bc1-39ed-43c4-83ca-6da147d76bea,True,37.78227952975499,-122.40731298923492,Mint St at Mission St,3,"['CREDITCARD', 'KEY']",http://app.fordgobike.com/Z6gL/SiFlGfIOTF?station_id=446,SF-H26-2,446,San Francisco,San Francisco
383,0,False,False,ea3a94b3-f37e-4d32-afaf-e8bc1f89342f,False,37.76393402521409,-122.47065067291258,Funston Ave at Irving St,,"['CREDITCARD', 'KEY']",http://app.fordgobike.com/Z6gL/SiFlGfIOTF?station_id=450,SF-M10,450,San Francisco,San Francisco
384,0,False,False,51e8e63d-0883-47e0-b280-210e0c990a49,False,37.76409093429919,-122.46737837791443,10th Ave at Irving St,,"['CREDITCARD', 'KEY']",http://app.fordgobike.com/Z6gL/SiFlGfIOTF?station_id=451,SF-M11,451,San Francisco,San Francisco
385,19,False,False,e1242828-b89b-4d56-a78e-6a34fd7d3c00,True,37.77793367006746,-122.3969730734825,Brannan St at 4th St,3,"['CREDITCARD', 'KEY']",http://app.fordgobike.com/Z6gL/SiFlGfIOTF?station_id=453,SF-J28-2,453,San Francisco,San Francisco
386,23,False,False,2815280a-8263-4537-a944-4fdc32774fde,True,37.77517550658666,-122.46500730514526,7th Ave at Cabrillo St,3,"['CREDITCARD', 'KEY']",http://app.fordgobike.com/Z6gL/SiFlGfIOTF?station_id=454,SF-J12,454,San Francisco,San Francisco
387,19,False,False,bfb90ed7-6039-4c61-9b13-fb60b1786dde,True,37.77521366789027,-122.4583339691162,McAllister St at Arguello Blvd,3,"['CREDITCARD', 'KEY']",http://app.fordgobike.com/Z6gL/SiFlGfIOTF?station_id=455,SF-J13,455,San Francisco,San Francisco
388,19,False,False,b513d838-5423-490c-bf7d-9f20771cf529,True,37.78146761537824,-122.45880603790283,Arguello Blvd at Geary Blvd,3,"['CREDITCARD', 'KEY']",http://app.fordgobike.com/Z6gL/SiFlGfIOTF?station_id=456,SF-G13,456,San Francisco,San Francisco
389,0,False,False,09a8c4ba-29d9-43bd-a457-34e8f741d673,False,37.76343361023245,-122.46406316757202,7th Ave at Irving St,,"['CREDITCARD', 'KEY']",http://app.fordgobike.com/Z6gL/SiFlGfIOTF?station_id=457,SF-M12,457,San Francisco,San Francisco
390,0,False,False,ec61cf51-8375-4959-9f51-b225e317abb7,False,37.76578298679633,-122.45763659477234,Frederick St at Arguello Blvd,3,"['CREDITCARD', 'KEY']",http://app.fordgobike.com/Z6gL/SiFlGfIOTF?station_id=458,SF-M13,458,San Francisco,San Francisco
391,15,False,False,9cac67a2-9219-455e-b3db-c771311c5b33,True,37.75312346009645,-122.40539252758025,Utah St at 24th St,3,"['CREDITCARD', 'KEY']",http://app.fordgobike.com/Z6gL/SiFlGfIOTF?station_id=459,SF-Q26,459,San Francisco,San Francisco
392,42,False,False,87168190-5491-47c8-bb9b-187ddf6052c3,True,37.76909488728109,-122.38633275032042,Terry Francois Blvd at Warriors Way,3,"['CREDITCARD', 'KEY']",http://app.fordgobike.com/Z6gL/SiFlGfIOTF?station_id=460,SF-M30-2,460,San Francisco,San Francisco
393,27,False,False,afd6eb75-31a1-4efc-8049-b5617fc2b51f,True,37.771329594195095,-122.38662242889403,Terry Francois Blvd at Mission Bay Blvd N,3,"['CREDITCARD', 'KEY']",http://app.fordgobike.com/Z6gL/SiFlGfIOTF?station_id=461,SF-L31-1,461,San Francisco,San Francisco
394,23,False,False,d82d9e94-bb62-4001-b6ad-50603199554d,True,37.80422327735408,-122.40164279937743,Cruise Terminal at Pier 27,3,"['CREDITCARD', 'KEY']",http://app.fordgobike.com/Z6gL/SiFlGfIOTF?station_id=462,SF-B28,462,San Francisco,San Francisco
395,27,False,False,c0d7ba8d-145a-40fc-aa06-f4c06fc49edb,True,37.740321776391326,-122.3767840862274,Heron's Head Park,3,"['CREDITCARD', 'KEY']",http://app.fordgobike.com/Z6gL/SiFlGfIOTF?station_id=463,SF-V32,463,San Francisco,San Francisco
396,18,False,False,a7da1857-747a-4507-9d8f-2a9f95f0babf,True,37.77632881728594,-122.39443838596343,San Francisco Caltrain Station (King St at 4th St),3,"['CREDITCARD', 'KEY']",http://app.fordgobike.com/Z6gL/SiFlGfIOTF?station_id=465,SF-J29-3,465,San Francisco,San Francisco
397,21,False,False,9b4f6ef0-4568-4f52-8226-ec8432b75802,True,37.77948760924334,-122.46314182877539,5th Ave at Anza St,3,"['CREDITCARD', 'KEY']",http://app.fordgobike.com/Z6gL/SiFlGfIOTF?station_id=466,SF-H12,466,San Francisco,San Francisco
398,0,False,False,4c98bff8-3bd8-480e-ac8f-25fa4b09f84e,False,37.78238578812408,-122.39134311676027,Brannan St at Colin P Kelly Jr St,3,"['CREDITCARD', 'KEY']",http://app.fordgobike.com/Z6gL/SiFlGfIOTF?station_id=467,SF-I30-2,467,San Francisco,San Francisco
399,0,False,False,578f166a-d83f-4730-b12d-f1384b7b8c44,False,37.77787007022392,-122.42295295000075,Grove St at Gough St,,"['CREDITCARD', 'KEY']",http://app.fordgobike.com/Z6gL/SiFlGfIOTF?station_id=468,SF-J22-2,468,San Francisco,San Francisco
400,0,False,False,7baa314e-6125-4943-b469-40cd66776104,False,37.781981687527214,-122.43576988577843,Ellis St at Pierce St,,"['CREDITCARD', 'KEY']",http://app.fordgobike.com/Z6gL/SiFlGfIOTF?station_id=469,SF-H19,469,San Francisco,San Francisco
401,23,False,False,b6d76c7a-2082-430b-8403-da5db00becaf,True,37.3426625921454,-121.87729239463806,N 14th St at E Santa Clara St,5,"['CREDITCARD', 'KEY']",http://app.fordgobike.com/Z6gL/SiFlGfIOTF?station_id=470,SJ-L12,470,San Jose,South Bay
402,0,False,False,394b8db0-00f7-47b8-b85c-a36fd0de8340,False,37.777609310293336,-122.45462179183959,Turk Blvd at Stanyan St,,"['CREDITCARD', 'KEY']",http://app.fordgobike.com/Z6gL/SiFlGfIOTF?station_id=471,SF-J14,471,San Francisco,San Francisco
403,0,False,False,eb283c26-5d6b-4da4-a2ac-f0bfe3329856,False,37.324125951150876,-121.89971968531609,Columbia Ave at Bird Ave,,"['CREDITCARD', 'KEY']",http://app.fordgobike.com/Z6gL/SiFlGfIOTF?station_id=472,SJ-N7,472,San Jose,South Bay
404,0,False,False,cf792877-0b6a-4594-b388-8eb06599b549,False,37.309014074275915,-121.9000107049942,Willow St at Blewett Ave,,"['CREDITCARD', 'KEY']",http://app.fordgobike.com/Z6gL/SiFlGfIOTF?station_id=473,SJ-Q4,473,San Jose,South Bay
